domain,actionSource,sourceVmUuid,dynUserGroupName,parentSessionId,destinationDeviceOsVersion,linkChangeCount,sctpAssociationId,sourceDeviceOsVersion,sourceHostName,error2,subcategoryOfApp,ipProtocol,destinationDeviceCategory,tags,dgHierarchyLevel1,uuidForRule,linkSwitches,bytesSent,tunnelIdImsi,@timestamp,nssaiSd,destinationPort,destinationCountry,configVersion,sanctionedStateOfApp,tunnel,packetsSent,sourceDynamicAddressGroup,sessionId,http2Connection,sdwanCluster,packets,sctpChunks,generateTime,clusterName,sdwanSite,destinationUser,syslog_domain,timeLogged,deviceName,sessionEndReason,@version,host,sourceDeviceModel,technologyOfApp,flowType,actionFlags,parentSessionStartTime,bytesReceived,repeatCount,sourcePort,dgHierarchyLevel3,error1,packetsReceived,saasOfApp,sourceDeviceOsFamily,destinationZone,sdwanDeviceType,outboundInterface,podNamespace,serial,tunneledApp,inboundInterface,virtualSystem,sourceDeviceVendor,sctpChunksSent,xffAddress,rule,sessionOwner,category,logAction,sequenceNumber,new_domain,sourceZone,elapsedTimeSec,action,dgHierarchyLevel2,natDestinationIp,destinationAddress,nssaiSst,destinationDynamicAddressGroup,sourceExternalDynamicList,sourceUser,sourceDeviceCategory,receiveTime,characteristicOfApp,sourceMacAddress,policyId,sctpChunksReceived,virtualSystemName,flags,containerOfApp,destinationHostName,destinationDeviceProfile,riskOfApp,offloaded,application,destinationDeviceOsFamily,natDestinationPort,logType,destinationDeviceModel,destinationMacAddress,sdwanClusterType,bytes,destinationVmUuid,highResTimestamp,serialNumber,startTime,dgHierarchyLevel4,sourceDeviceProfile,sourceCountry,hostId,podName,original_domain,sourceAddress,destinationExternalDynamicList,containerId,destinationDeviceVendor,threatContentType,natSourceIp,monitorTagImei,natSourcePort
<14>Dec 28 05:44:37 VISION-SEOUL-FW.seoulfw 1,from-policy,,,0,,0,0,,,,unknown,udp,,"[""_dateparsefailure""]",policy-deny,e90cbdfb-a61c-4c37-92ea-1fc8d7cd4431,,60,0,2024-12-27T20:44:37.745Z,,63588,Korea Republic Of,2817,no,N/A,,,0,0,,1,0,2024/12/28 05:44:37,NonProxyTraffic,,,VISION-SEOUL-FW.seoulfw 1,2024/12/28 05:44:37,VISION-SEOUL-FW,0,1,192.168.200.252,,unknown,0,0x8000000000000000,,0,1,38616,0,7444489203827593647,1,not-applicable,,untrust,,,,023201001129,,ethernet1/2,vsys1,,0,,intrazone-default,,any,PaloLog-forward,,,untrust,0,deny,0,0.0.0.0,118.128.43.82,,,,,,2024/12/28 05:44:37,1,,,0,0,0x0,,,,unknown,no,not-applicable,,0,TRAFFIC,,,,60,,2024-12-28T05:44:37.858+09:00,,2024/12/28 05:44:36,0,,Korea Republic Of,,,VISION-SEOUL-FW.seoulfw 1,110.45.192.90,,,,drop,0.0.0.0,,0
<14>Dec 28 05:44:37 VISION-SEOUL-FW.seoulfw 1,from-policy,,,0,,0,0,,,,unknown,tcp,,"[""_dateparsefailure""]",aged-out,dbd7a6c6-ca36-4398-80b3-5bab8fa733c2,,74,0,2024-12-27T20:44:37.744Z,,135,192.168.0.0-192.168.255.255,2817,no,N/A,,,296790,0,,1,0,2024/12/28 05:44:37,NonProxyTraffic,,,VISION-SEOUL-FW.seoulfw 1,2024/12/28 05:44:37,VISION-SEOUL-FW,0,1,192.168.200.252,,unknown,0,0x8000000000000000,,0,1,60388,0,7444489203827593645,1,incomplete,,trust,,ae1,,023201001129,,ae1,vsys1,,0,,ALLOW-OUTBOUND,,any,PaloLog-forward,,,trust,0,allow,0,0.0.0.0,192.168.199.201,,,,seoul\administrator,,2024/12/28 05:44:37,1,,,0,0,0x19,,,,unknown,no,incomplete,,0,TRAFFIC,,,,74,,2024-12-28T05:44:37.858+09:00,,2024/12/28 05:44:31,0,,192.168.0.0-192.168.255.255,,,VISION-SEOUL-FW.seoulfw 1,192.168.200.252,,,,end,0.0.0.0,,0
<14>Dec 28 05:44:37 VISION-SEOUL-FW.seoulfw 1,from-policy,,,0,,0,0,,,,unknown,udp,,"[""_dateparsefailure""]",policy-deny,e90cbdfb-a61c-4c37-92ea-1fc8d7cd4431,,60,0,2024-12-27T20:44:37.744Z,,7062,Korea Republic Of,2817,no,N/A,,,0,0,,1,0,2024/12/28 05:44:37,NonProxyTraffic,,,VISION-SEOUL-FW.seoulfw 1,2024/12/28 05:44:37,VISION-SEOUL-FW,0,1,192.168.200.252,,unknown,0,0x8000000000000000,,0,1,38059,0,7444489203827593646,1,not-applicable,,untrust,,,,023201001129,,ethernet1/2,vsys1,,0,,intrazone-default,,any,PaloLog-forward,,,untrust,0,deny,0,0.0.0.0,118.128.43.82,,,,,,2024/12/28 05:44:37,1,,,0,0,0x0,,,,unknown,no,not-applicable,,0,TRAFFIC,,,,60,,2024-12-28T05:44:37.858+09:00,,2024/12/28 05:44:36,0,,Korea Republic Of,,,VISION-SEOUL-FW.seoulfw 1,110.45.188.132,,,,drop,0.0.0.0,,0
<14>Dec 28 05:44:37 VISION-SEOUL-FW.seoulfw 1,from-policy,,,0,,0,0,,,,infrastructure,udp,,"[""_dateparsefailure""]",aged-out,dbd7a6c6-ca36-4398-80b3-5bab8fa733c2,,90,0,2024-12-27T20:44:37.744Z,,53,Korea Republic Of,2817,no,N/A,,,296463,0,,2,0,2024/12/28 05:44:37,NonProxyTraffic,,,VISION-SEOUL-FW.seoulfw 1,2024/12/28 05:44:37,VISION-SEOUL-FW,1,1,192.168.200.252,,networking,0,0x8000000000000000,,196,1,36656,0,7444489203827593644,1,dns-base,,untrust,,ethernet1/2,,023201001129,dns,ae2,vsys1,,0,,ALLOW-OUTBOUND,,any,PaloLog-forward,,,SERVER,0,allow,0,168.126.63.1,168.126.63.1,,,,,,2024/12/28 05:44:37,3,,,0,0,0x400019,"used-by-malware,has-known-vulnerability,pervasive-use",,,network-protocol,no,dns-base,,53,TRAFFIC,,,,286,,2024-12-28T05:44:37.858+09:00,,2024/12/28 05:44:04,0,,192.168.0.0-192.168.255.255,,,VISION-SEOUL-FW.seoulfw 1,192.168.100.170,,,,end,118.128.43.82,,40712
<14>Dec 28 05:44:37 VISION-SEOUL-FW.seoulfw 1,from-policy,,,0,,0,0,,,,internet-utility,icmp,,"[""_dateparsefailure""]",aged-out,dbd7a6c6-ca36-4398-80b3-5bab8fa733c2,,294,0,2024-12-27T20:44:37.743Z,,0,192.168.0.0-192.168.255.255,2817,no,N/A,,,296169,0,,6,0,2024/12/28 05:44:37,NonProxyTraffic,,,VISION-SEOUL-FW.seoulfw 1,2024/12/28 05:44:37,VISION-SEOUL-FW,3,1,192.168.200.252,,general-internet,0,0x8000000000000000,,294,3,30231,0,7444489203827593639,3,untunneled,,trust,,ae1,,023201001129,,ae1,vsys1,,0,,ALLOW-OUTBOUND,,any,PaloLog-forward,,,trust,0,allow,0,0.0.0.0,192.168.200.1,,,,,,2024/12/28 05:44:37,2,,,0,0,0x100019,"has-known-vulnerability,tunnel-other-application,pervasive-use",,,network-protocol,no,ping,,0,TRAFFIC,,,,588,,2024-12-28T05:44:37.857+09:00,,2024/12/28 05:44:21,0,,192.168.0.0-192.168.255.255,,,VISION-SEOUL-FW.seoulfw 1,192.168.200.254,,,,end,0.0.0.0,,0
<14>Dec 28 05:44:37 VISION-SEOUL-FW.seoulfw 1,from-policy,,,0,,0,0,,,,infrastructure,udp,,"[""_dateparsefailure""]",aged-out,dbd7a6c6-ca36-4398-80b3-5bab8fa733c2,,90,0,2024-12-27T20:44:37.743Z,,123,Korea Republic Of,2817,no,N/A,,,296371,0,,2,0,2024/12/28 05:44:37,NonProxyTraffic,,,VISION-SEOUL-FW.seoulfw 1,2024/12/28 05:44:37,VISION-SEOUL-FW,1,1,192.168.200.252,,networking,0,0x8000000000000000,,90,1,123,0,7444489203827593642,1,ntp-base,,untrust,,ethernet1/2,,023201001129,ntp,ae2,vsys1,,0,,ALLOW-OUTBOUND,,any,PaloLog-forward,,,SERVER,0,allow,0,106.247.248.106,106.247.248.106,,,,,,2024/12/28 05:44:37,2,,,0,0,0x40007a,"used-by-malware,pervasive-use",,,network-protocol,no,ntp-base,,123,TRAFFIC,,,,180,,2024-12-28T05:44:37.858+09:00,,2024/12/28 05:44:03,0,,192.168.0.0-192.168.255.255,,,VISION-SEOUL-FW.seoulfw 1,192.168.100.171,,,,end,118.128.43.82,,24903
<14>Dec 28 05:44:37 VISION-SEOUL-FW.seoulfw 1,from-policy,,,0,,0,0,,,,infrastructure,udp,,"[""_dateparsefailure""]",aged-out,dbd7a6c6-ca36-4398-80b3-5bab8fa733c2,,187,0,2024-12-27T20:44:37.743Z,,53,Korea Republic Of,2817,no,N/A,,,296614,0,,4,0,2024/12/28 05:44:37,NonProxyTraffic,,,VISION-SEOUL-FW.seoulfw 1,2024/12/28 05:44:37,VISION-SEOUL-FW,2,1,192.168.200.252,,networking,0,0x8000000000000000,,475,1,39457,0,7444489203827593640,2,dns-base,,untrust,,ethernet1/2,,023201001129,dns,ae2,vsys1,,0,,ALLOW-OUTBOUND,,any,PaloLog-forward,,,SERVER,1,allow,0,168.126.63.1,168.126.63.1,,,,,,2024/12/28 05:44:37,3,,,0,0,0x400019,"used-by-malware,has-known-vulnerability,pervasive-use",,,network-protocol,no,dns-base,,53,TRAFFIC,,,,662,,2024-12-28T05:44:37.858+09:00,,2024/12/28 05:44:02,0,,192.168.0.0-192.168.255.255,,,VISION-SEOUL-FW.seoulfw 1,192.168.100.171,,,,end,118.128.43.82,,12823
<14>Dec 28 05:44:37 VISION-SEOUL-FW.seoulfw 1,from-policy,,,0,,0,0,,,,infrastructure,udp,,"[""_dateparsefailure""]",aged-out,dbd7a6c6-ca36-4398-80b3-5bab8fa733c2,,288,0,2024-12-27T20:44:37.743Z,,53,United States,2817,no,N/A,,,295964,0,,6,0,2024/12/28 05:44:37,NonProxyTraffic,,,VISION-SEOUL-FW.seoulfw 1,2024/12/28 05:44:37,VISION-SEOUL-FW,3,1,192.168.200.252,,networking,0,0x8000000000000000,,766,1,60199,0,7444489203827593643,3,dns-base,,untrust,,ethernet1/2,,023201001129,dns,ae2,vsys1,,0,,ALLOW-OUTBOUND,,any,PaloLog-forward,,,SERVER,1,allow,0,8.8.8.8,8.8.8.8,,,,,,2024/12/28 05:44:37,3,,,0,0,0x400019,"used-by-malware,has-known-vulnerability,pervasive-use",,,network-protocol,no,dns-base,,53,TRAFFIC,,,,1054,,2024-12-28T05:44:37.858+09:00,,2024/12/28 05:44:02,0,,192.168.0.0-192.168.255.255,,,VISION-SEOUL-FW.seoulfw 1,192.168.100.171,,,,end,118.128.43.82,,4433
<14>Dec 28 05:44:32 VISION-SEOUL-FW.seoulfw 1,from-policy,,,0,,0,0,,,,management,udp,,"[""_dateparsefailure""]",aged-out,dbd7a6c6-ca36-4398-80b3-5bab8fa733c2,,45501,0,2024-12-27T20:44:32.745Z,,514,192.168.0.0-192.168.255.255,2817,no,N/A,,,295112,0,,102,0,2024/12/28 05:44:32,NonProxyTraffic,,,VISION-SEOUL-FW.seoulfw 1,2024/12/28 05:44:32,VISION-SEOUL-FW,0,1,192.168.200.252,,business-systems,0,0x8000000000000000,,0,1,40530,0,7444489203827593637,102,syslog,,IPSecVPN,,tunnel.1,,023201001129,,ae1,vsys1,,0,,ALLOW-OUTBOUND,,any,PaloLog-forward,,,trust,75,allow,0,0.0.0.0,192.168.1.47,,,,seoul\administrator,,2024/12/28 05:44:32,2,,,0,0,0x5e,"has-known-vulnerability,pervasive-use",,,client-server,no,syslog,,0,TRAFFIC,,,,45501,,2024-12-28T05:44:32.857+09:00,,2024/12/28 05:42:47,0,,192.168.0.0-192.168.255.255,,,VISION-SEOUL-FW.seoulfw 1,192.168.200.252,,,,end,0.0.0.0,,0
<14>Dec 28 05:44:32 VISION-SEOUL-FW.seoulfw 1,from-policy,,,0,,0,0,,,,management,udp,,"[""_dateparsefailure""]",aged-out,dbd7a6c6-ca36-4398-80b3-5bab8fa733c2,,45501,0,2024-12-27T20:44:32.745Z,,514,192.168.0.0-192.168.255.255,2817,no,N/A,,,280757,0,,104,0,2024/12/28 05:44:32,NonProxyTraffic,,,VISION-SEOUL-FW.seoulfw 1,2024/12/28 05:44:32,VISION-SEOUL-FW,2,1,192.168.200.252,,business-systems,0,0x8000000000000000,,870,1,58971,0,7444489203827593638,102,syslog,,IPSecVPN,,tunnel.1,,023201001129,,ae1,vsys1,,0,,ALLOW-OUTBOUND,,any,PaloLog-forward,,,trust,75,allow,0,0.0.0.0,192.168.1.131,,,,seoul\administrator,,2024/12/28 05:44:32,2,,,0,0,0x5e,"has-known-vulnerability,pervasive-use",,,client-server,no,syslog,,0,TRAFFIC,,,,46371,,2024-12-28T05:44:32.858+09:00,,2024/12/28 05:42:47,0,,192.168.0.0-192.168.255.255,,,VISION-SEOUL-FW.seoulfw 1,192.168.200.252,,,,end,0.0.0.0,,0
<14>Dec 28 05:44:32 VISION-SEOUL-FW.seoulfw 1,from-policy,,,0,,0,0,,,,unknown,udp,,"[""_dateparsefailure""]",policy-deny,e90cbdfb-a61c-4c37-92ea-1fc8d7cd4431,,60,0,2024-12-27T20:44:32.744Z,,63588,Korea Republic Of,2817,no,N/A,,,0,0,,1,0,2024/12/28 05:44:32,NonProxyTraffic,,,VISION-SEOUL-FW.seoulfw 1,2024/12/28 05:44:32,VISION-SEOUL-FW,0,1,192.168.200.252,,unknown,0,0x8000000000000000,,0,1,38616,0,7444489203827593632,1,not-applicable,,untrust,,,,023201001129,,ethernet1/2,vsys1,,0,,intrazone-default,,any,PaloLog-forward,,,untrust,0,deny,0,0.0.0.0,118.128.43.82,,,,,,2024/12/28 05:44:32,1,,,0,0,0x0,,,,unknown,no,not-applicable,,0,TRAFFIC,,,,60,,2024-12-28T05:44:32.857+09:00,,2024/12/28 05:44:31,0,,Korea Republic Of,,,VISION-SEOUL-FW.seoulfw 1,110.45.192.90,,,,drop,0.0.0.0,,0
<14>Dec 28 05:44:32 VISION-SEOUL-FW.seoulfw 1,from-policy,,,0,,0,0,,,,internet-utility,tcp,,"[""_dateparsefailure""]",tcp-fin,dbd7a6c6-ca36-4398-80b3-5bab8fa733c2,,429,0,2024-12-27T20:44:32.744Z,,80,192.168.0.0-192.168.255.255,2817,no,N/A,,,295955,0,,9,0,2024/12/28 05:44:32,NonProxyTraffic,,,VISION-SEOUL-FW.seoulfw 1,2024/12/28 05:44:32,VISION-SEOUL-FW,3,1,192.168.200.252,,general-internet,0,0x8000000000000000,,466,1,40126,0,7444489203827593636,6,web-browsing,,trust,,ae1,,023201001129,,ae1,vsys1,,0,,ALLOW-OUTBOUND,,license-expired,PaloLog-forward,,,trust,0,allow,0,0.0.0.0,192.168.199.226,,,,seoul\administrator,,2024/12/28 05:44:32,4,,,0,0,0x1c,"used-by-malware,able-to-transfer-file,has-known-vulnerability,tunnel-other-application,pervasive-use",,,browser-based,no,web-browsing,,0,TRAFFIC,,,,895,,2024-12-28T05:44:32.857+09:00,,2024/12/28 05:44:17,0,,192.168.0.0-192.168.255.255,,,VISION-SEOUL-FW.seoulfw 1,192.168.200.252,,,,end,0.0.0.0,,0
<14>Dec 28 05:44:32 VISION-SEOUL-FW.seoulfw 1,from-policy,,,0,,0,0,,,,management,udp,,"[""_dateparsefailure""]",aged-out,dbd7a6c6-ca36-4398-80b3-5bab8fa733c2,,45501,0,2024-12-27T20:44:32.744Z,,514,192.168.0.0-192.168.255.255,2817,no,N/A,,,294865,0,,102,0,2024/12/28 05:44:32,NonProxyTraffic,,,VISION-SEOUL-FW.seoulfw 1,2024/12/28 05:44:32,VISION-SEOUL-FW,0,1,192.168.200.252,,business-systems,0,0x8000000000000000,,0,1,51587,0,7444489203827593633,102,syslog,,IPSecVPN,,tunnel.1,,023201001129,,ae1,vsys1,,0,,ALLOW-OUTBOUND,,any,PaloLog-forward,,,trust,75,allow,0,0.0.0.0,192.168.1.132,,,,seoul\administrator,,2024/12/28 05:44:32,2,,,0,0,0x5e,"has-known-vulnerability,pervasive-use",,,client-server,no,syslog,,0,TRAFFIC,,,,45501,,2024-12-28T05:44:32.857+09:00,,2024/12/28 05:42:47,0,,192.168.0.0-192.168.255.255,,,VISION-SEOUL-FW.seoulfw 1,192.168.200.252,,,,end,0.0.0.0,,0
<14>Dec 28 05:44:32 VISION-SEOUL-FW.seoulfw 1,from-policy,,,0,,0,0,,,,general-business,tcp,,"[""_dateparsefailure""]",tcp-rst-from-client,dbd7a6c6-ca36-4398-80b3-5bab8fa733c2,,9861,0,2024-12-27T20:44:32.744Z,,443,United States,2817,no,N/A,,,295739,0,,60,0,2024/12/28 05:44:32,NonProxyTraffic,,,VISION-SEOUL-FW.seoulfw 1,2024/12/28 05:44:32,VISION-SEOUL-FW,28,1,192.168.200.252,,business-systems,0,0x8000000000000000,,22225,1,50306,0,7444489203827593635,32,paloalto-device-telemetry,,untrust,,ethernet1/2,,023201001129,,ae1,vsys1,,0,,ALLOW-OUTBOUND,,license-expired,PaloLog-forward,,,trust,188,allow,0,35.184.126.116,35.184.126.116,,,,,,2024/12/28 05:44:32,1,,,0,0,0x40047a,,,,client-server,no,paloalto-device-telemetry,,443,TRAFFIC,,,,32086,,2024-12-28T05:44:32.857+09:00,,2024/12/28 05:41:09,0,,192.168.0.0-192.168.255.255,,,VISION-SEOUL-FW.seoulfw 1,192.168.200.251,,,,end,118.128.43.82,,4929
<14>Dec 28 05:44:32 VISION-SEOUL-FW.seoulfw 1,from-policy,,,0,,0,0,,,,infrastructure,udp,,"[""_dateparsefailure""]",aged-out,dbd7a6c6-ca36-4398-80b3-5bab8fa733c2,,101,0,2024-12-27T20:44:32.744Z,,53,United States,2817,no,N/A,,,294927,0,,2,0,2024/12/28 05:44:32,NonProxyTraffic,,,VISION-SEOUL-FW.seoulfw 1,2024/12/28 05:44:32,VISION-SEOUL-FW,1,1,192.168.200.252,,networking,0,0x8000000000000000,,366,1,34668,0,7444489203827593634,1,dns-base,,untrust,,ethernet1/2,,023201001129,dns,ae2,vsys1,,0,,ALLOW-OUTBOUND,,any,PaloLog-forward,,,SERVER,0,allow,0,8.8.8.8,8.8.8.8,,,,,,2024/12/28 05:44:32,3,,,0,0,0x400019,"used-by-malware,has-known-vulnerability,pervasive-use",,,network-protocol,no,dns-base,,53,TRAFFIC,,,,467,,2024-12-28T05:44:32.857+09:00,,2024/12/28 05:44:02,0,,192.168.0.0-192.168.255.255,,,VISION-SEOUL-FW.seoulfw 1,192.168.100.171,,,,end,118.128.43.82,,47269
<14>Dec 28 05:44:32 VISION-SEOUL-FW.seoulfw 1,from-policy,,,0,,0,0,,,,unknown,udp,,"[""_dateparsefailure""]",policy-deny,e90cbdfb-a61c-4c37-92ea-1fc8d7cd4431,,60,0,2024-12-27T20:44:32.743Z,,7062,Korea Republic Of,2817,no,N/A,,,0,0,,1,0,2024/12/28 05:44:32,NonProxyTraffic,,,VISION-SEOUL-FW.seoulfw 1,2024/12/28 05:44:32,VISION-SEOUL-FW,0,1,192.168.200.252,,unknown,0,0x8000000000000000,,0,1,38059,0,7444489203827593631,1,not-applicable,,untrust,,,,023201001129,,ethernet1/2,vsys1,,0,,intrazone-default,,any,PaloLog-forward,,,untrust,0,deny,0,0.0.0.0,118.128.43.82,,,,,,2024/12/28 05:44:32,1,,,0,0,0x0,,,,unknown,no,not-applicable,,0,TRAFFIC,,,,60,,2024-12-28T05:44:32.857+09:00,,2024/12/28 05:44:31,0,,Korea Republic Of,,,VISION-SEOUL-FW.seoulfw 1,110.45.188.132,,,,drop,0.0.0.0,,0
<14>Dec 28 05:44:32 VISION-SEOUL-FW.seoulfw 1,from-policy,,,0,,0,0,,,,encrypted-tunnel,tcp,,"[""_dateparsefailure""]",tcp-fin,dbd7a6c6-ca36-4398-80b3-5bab8fa733c2,,33841,0,2024-12-27T20:44:32.743Z,,443,United States,2817,no,N/A,,,295758,0,,1550,0,2024/12/28 05:44:32,NonProxyTraffic,,,VISION-SEOUL-FW.seoulfw 1,2024/12/28 05:44:32,VISION-SEOUL-FW,1075,1,192.168.200.252,,networking,0,0x8000000000000000,,947309,1,35814,0,7444489203827593630,475,ssl,,untrust,,ethernet1/2,,023201001129,,ae2,vsys1,,0,,ALLOW-OUTBOUND,,license-expired,PaloLog-forward,,,SERVER,69,allow,0,162.159.241.125,162.159.241.125,,,,,,2024/12/28 05:44:32,4,,,0,0,0x40047a,"used-by-malware,able-to-transfer-file,has-known-vulnerability,tunnel-other-application,pervasive-use",,,browser-based,no,ssl,,443,TRAFFIC,,,,981150,,2024-12-28T05:44:32.857+09:00,,2024/12/28 05:43:06,0,,192.168.0.0-192.168.255.255,,,VISION-SEOUL-FW.seoulfw 1,192.168.100.170,,,,end,118.128.43.82,,11713
<14>Dec 28 05:44:32 VISION-SEOUL-FW.seoulfw 1,from-policy,,,0,,0,0,,,,unknown,tcp,,"[""_dateparsefailure""]",aged-out,dbd7a6c6-ca36-4398-80b3-5bab8fa733c2,,296,0,2024-12-27T20:44:32.743Z,,135,192.168.0.0-192.168.255.255,2817,no,N/A,,,295662,0,,4,0,2024/12/28 05:44:32,NonProxyTraffic,,,VISION-SEOUL-FW.seoulfw 1,2024/12/28 05:44:32,VISION-SEOUL-FW,0,1,192.168.200.252,,unknown,0,0x8000000000000000,,0,1,60388,0,7444489203827593628,4,incomplete,,trust,,ae1,,023201001129,,ae1,vsys1,,0,,ALLOW-OUTBOUND,,any,PaloLog-forward,,,trust,7,allow,0,0.0.0.0,192.168.199.201,,,,seoul\administrator,,2024/12/28 05:44:32,1,,,0,0,0x19,,,,unknown,no,incomplete,,0,TRAFFIC,,,,296,,2024-12-28T05:44:32.857+09:00,,2024/12/28 05:44:16,0,,192.168.0.0-192.168.255.255,,,VISION-SEOUL-FW.seoulfw 1,192.168.200.252,,,,end,0.0.0.0,,0
<14>Dec 28 05:44:27 VISION-SEOUL-FW.seoulfw 1,from-policy,,,0,,0,0,,,,encrypted-tunnel,tcp,,"[""_dateparsefailure""]",tcp-rst-from-client,dbd7a6c6-ca36-4398-80b3-5bab8fa733c2,,1723,0,2024-12-27T20:44:27.743Z,,443,United States,2817,no,N/A,,,295057,0,,23,0,2024/12/28 05:44:27,NonProxyTraffic,,,VISION-SEOUL-FW.seoulfw 1,2024/12/28 05:44:27,VISION-SEOUL-FW,11,1,192.168.200.252,,networking,0,0x8000000000000000,,4931,1,50324,0,7444489203827593627,12,ssl,,untrust,,ethernet1/2,,023201001129,,ae1,vsys1,,0,,ALLOW-OUTBOUND,,license-expired,PaloLog-forward,,,trust,1,allow,0,52.137.106.217,52.137.106.217,,,,,,2024/12/28 05:44:27,4,,,0,0,0x40047a,"used-by-malware,able-to-transfer-file,has-known-vulnerability,tunnel-other-application,pervasive-use",,,browser-based,no,ssl,,443,TRAFFIC,,,,6654,,2024-12-28T05:44:27.857+09:00,,2024/12/28 05:44:11,0,,192.168.0.0-192.168.255.255,,,VISION-SEOUL-FW.seoulfw 1,192.168.200.102,,,,end,118.128.43.82,,39179
<14>Dec 28 05:44:27 VISION-SEOUL-FW.seoulfw 1,from-policy,,,0,,0,0,,,,general-business,tcp,,"[""_dateparsefailure""]",tcp-fin,dbd7a6c6-ca36-4398-80b3-5bab8fa733c2,,2760,0,2024-12-27T20:44:27.742Z,,443,United States,2817,no,N/A,,,294641,0,,63,0,2024/12/28 05:44:27,NonProxyTraffic,,,VISION-SEOUL-FW.seoulfw 1,2024/12/28 05:44:27,VISION-SEOUL-FW,43,1,192.168.200.252,,business-systems,0,0x8000000000000000,,51885,1,33636,0,7444489203827593625,20,paloalto-autofocus,,untrust,,ethernet1/2,,023201001129,,ae2,vsys1,,0,,ALLOW-OUTBOUND,,license-expired,PaloLog-forward,,,SERVER,6,allow,0,13.52.145.30,13.52.145.30,,,,,,2024/12/28 05:44:27,2,,,0,0,0x40047a,"able-to-transfer-file,has-known-vulnerability",,,browser-based,no,paloalto-autofocus,,443,TRAFFIC,,,,54645,,2024-12-28T05:44:27.857+09:00,,2024/12/28 05:44:04,0,,192.168.0.0-192.168.255.255,,,VISION-SEOUL-FW.seoulfw 1,192.168.100.170,,,,end,118.128.43.82,,44214
<14>Dec 28 05:44:27 VISION-SEOUL-FW.seoulfw 1,from-policy,,,0,,0,0,,,,internet-utility,icmp,,"[""_dateparsefailure""]",aged-out,dbd7a6c6-ca36-4398-80b3-5bab8fa733c2,,294,0,2024-12-27T20:44:27.742Z,,0,192.168.0.0-192.168.255.255,2817,no,N/A,,,294974,0,,6,0,2024/12/28 05:44:27,NonProxyTraffic,,,VISION-SEOUL-FW.seoulfw 1,2024/12/28 05:44:27,VISION-SEOUL-FW,3,1,192.168.200.252,,general-internet,0,0x8000000000000000,,294,3,29207,0,7444489203827593623,3,untunneled,,trust,,ae1,,023201001129,,ae1,vsys1,,0,,ALLOW-OUTBOUND,,any,PaloLog-forward,,,trust,0,allow,0,0.0.0.0,192.168.200.1,,,,,,2024/12/28 05:44:27,2,,,0,0,0x100019,"has-known-vulnerability,tunnel-other-application,pervasive-use",,,network-protocol,no,ping,,0,TRAFFIC,,,,588,,2024-12-28T05:44:27.857+09:00,,2024/12/28 05:44:11,0,,192.168.0.0-192.168.255.255,,,VISION-SEOUL-FW.seoulfw 1,192.168.200.254,,,,end,0.0.0.0,,0
<14>Dec 28 05:44:27 VISION-SEOUL-FW.seoulfw 1,from-policy,,,0,,0,0,,,,unknown,udp,,"[""_dateparsefailure""]",policy-deny,e90cbdfb-a61c-4c37-92ea-1fc8d7cd4431,,60,0,2024-12-27T20:44:27.742Z,,7062,Korea Republic Of,2817,no,N/A,,,0,0,,1,0,2024/12/28 05:44:27,NonProxyTraffic,,,VISION-SEOUL-FW.seoulfw 1,2024/12/28 05:44:27,VISION-SEOUL-FW,0,1,192.168.200.252,,unknown,0,0x8000000000000000,,0,1,38059,0,7444489203827593626,1,not-applicable,,untrust,,,,023201001129,,ethernet1/2,vsys1,,0,,intrazone-default,,any,PaloLog-forward,,,untrust,0,deny,0,0.0.0.0,118.128.43.82,,,,,,2024/12/28 05:44:27,1,,,0,0,0x0,,,,unknown,no,not-applicable,,0,TRAFFIC,,,,60,,2024-12-28T05:44:27.857+09:00,,2024/12/28 05:44:26,0,,Korea Republic Of,,,VISION-SEOUL-FW.seoulfw 1,110.45.188.132,,,,drop,0.0.0.0,,0
<14>Dec 28 05:44:22 VISION-SEOUL-FW.seoulfw 1,from-policy,,,0,,0,0,,,,general-business,tcp,,"[""_dateparsefailure""]",tcp-fin,dbd7a6c6-ca36-4398-80b3-5bab8fa733c2,,2826,0,2024-12-27T20:44:22.743Z,,443,United States,2817,no,N/A,,,296724,0,,68,0,2024/12/28 05:44:22,NonProxyTraffic,,,VISION-SEOUL-FW.seoulfw 1,2024/12/28 05:44:22,VISION-SEOUL-FW,47,1,192.168.200.252,,business-systems,0,0x8000000000000000,,52183,1,42850,0,7444489203827593622,21,paloalto-autofocus,,untrust,,ethernet1/2,,023201001129,,ae2,vsys1,,0,,ALLOW-OUTBOUND,,license-expired,PaloLog-forward,,,SERVER,5,allow,0,13.52.145.30,13.52.145.30,,,,,,2024/12/28 05:44:22,2,,,0,0,0x40047a,"able-to-transfer-file,has-known-vulnerability",,,browser-based,no,paloalto-autofocus,,443,TRAFFIC,,,,55009,,2024-12-28T05:44:22.857+09:00,,2024/12/28 05:44:02,0,,192.168.0.0-192.168.255.255,,,VISION-SEOUL-FW.seoulfw 1,192.168.100.171,,,,end,118.128.43.82,,15578
<14>Dec 28 05:44:22 VISION-SEOUL-FW.seoulfw 1,from-policy,,,0,,0,0,,,,unknown,udp,,"[""_dateparsefailure""]",policy-deny,e90cbdfb-a61c-4c37-92ea-1fc8d7cd4431,,60,0,2024-12-27T20:44:22.743Z,,7062,Korea Republic Of,2817,no,N/A,,,0,0,,1,0,2024/12/28 05:44:22,NonProxyTraffic,,,VISION-SEOUL-FW.seoulfw 1,2024/12/28 05:44:22,VISION-SEOUL-FW,0,1,192.168.200.252,,unknown,0,0x8000000000000000,,0,1,38059,0,7444489203827593621,1,not-applicable,,untrust,,,,023201001129,,ethernet1/2,vsys1,,0,,intrazone-default,,any,PaloLog-forward,,,untrust,0,deny,0,0.0.0.0,118.128.43.82,,,,,,2024/12/28 05:44:22,1,,,0,0,0x0,,,,unknown,no,not-applicable,,0,TRAFFIC,,,,60,,2024-12-28T05:44:22.857+09:00,,2024/12/28 05:44:21,0,,Korea Republic Of,,,VISION-SEOUL-FW.seoulfw 1,110.45.188.132,,,,drop,0.0.0.0,,0
<14>Dec 28 05:44:22 VISION-SEOUL-FW.seoulfw 1,from-policy,,,0,,0,0,,,,unknown,udp,,"[""_dateparsefailure""]",aged-out,dbd7a6c6-ca36-4398-80b3-5bab8fa733c2,,1564,0,2024-12-27T20:44:22.742Z,,5060,Korea Republic Of,2817,no,N/A,,,294849,0,,5,0,2024/12/28 05:44:22,NonProxyTraffic,,,VISION-SEOUL-FW.seoulfw 1,2024/12/28 05:44:22,VISION-SEOUL-FW,3,1,192.168.200.252,,unknown,0,0x8000000000000000,,1438,1,5060,0,7444489203827593616,2,insufficient-data,,untrust,,ethernet1/2,,023201001129,,ae1,vsys1,,0,,ALLOW-OUTBOUND,,any,PaloLog-forward,,,trust,0,allow,0,210.207.255.47,210.207.255.47,,,,,,2024/12/28 05:44:22,1,,,0,0,0x400019,,,,unknown,no,insufficient-data,,5060,TRAFFIC,,,,3002,,2024-12-28T05:44:22.857+09:00,,2024/12/28 05:43:48,0,,192.168.0.0-192.168.255.255,,,VISION-SEOUL-FW.seoulfw 1,192.168.200.139,,,,end,118.128.43.82,,14583
<14>Dec 28 05:44:22 VISION-SEOUL-FW.seoulfw 1,from-policy,,,0,,0,0,,,,infrastructure,udp,,"[""_dateparsefailure""]",aged-out,dbd7a6c6-ca36-4398-80b3-5bab8fa733c2,,100,0,2024-12-27T20:44:22.742Z,,53,United States,2817,no,N/A,,,296196,0,,2,0,2024/12/28 05:44:22,NonProxyTraffic,,,VISION-SEOUL-FW.seoulfw 1,2024/12/28 05:44:22,VISION-SEOUL-FW,1,1,192.168.200.252,,networking,0,0x8000000000000000,,182,1,45125,0,7444489203827593619,1,dns-base,,untrust,,ethernet1/2,,023201001129,dns,ae1,vsys1,,0,,ALLOW-OUTBOUND,,any,PaloLog-forward,,,trust,0,allow,0,8.8.8.8,8.8.8.8,,,,,,2024/12/28 05:44:22,3,,,0,0,0x400019,"used-by-malware,has-known-vulnerability,pervasive-use",,,network-protocol,no,dns-base,,53,TRAFFIC,,,,282,,2024-12-28T05:44:22.857+09:00,,2024/12/28 05:43:49,0,,192.168.0.0-192.168.255.255,,,VISION-SEOUL-FW.seoulfw 1,192.168.200.251,,,,end,118.128.43.82,,4437
<14>Dec 28 05:44:22 VISION-SEOUL-FW.seoulfw 1,from-policy,,,0,,0,0,,,,encrypted-tunnel,tcp,,"[""_dateparsefailure""]",aged-out,8b168a38-7dd9-4435-8188-4d9dc014666e,,180,0,2024-12-27T20:44:22.742Z,,443,Korea Republic Of,2817,no,N/A,,,296397,0,,3,0,2024/12/28 05:44:22,NonProxyTraffic,,,VISION-SEOUL-FW.seoulfw 1,2024/12/28 05:44:22,VISION-SEOUL-FW,0,1,192.168.200.252,,networking,0,0x8000000000000000,,0,1,58326,0,7444489203827593618,3,ssl,,untrust,,ethernet1/2,,023201001129,,ethernet1/2,vsys1,,0,,Allow-Global-Protect-Portal,,any,PaloLog-forward,,,untrust,0,allow,0,118.128.43.82,118.128.43.82,,,,,,2024/12/28 05:44:22,4,,,0,0,0x1400077,"used-by-malware,able-to-transfer-file,has-known-vulnerability,tunnel-other-application,pervasive-use",,,browser-based,no,ssl,,20077,TRAFFIC,,,,180,,2024-12-28T05:44:22.857+09:00,,2024/12/28 05:44:03,0,,Bulgaria,,,VISION-SEOUL-FW.seoulfw 1,87.120.115.34,,,,end,87.120.115.34,,58326
<14>Dec 28 05:44:22 VISION-SEOUL-FW.seoulfw 1,from-policy,,,0,,0,0,,,,infrastructure,udp,,"[""_dateparsefailure""]",aged-out,dbd7a6c6-ca36-4398-80b3-5bab8fa733c2,,90,0,2024-12-27T20:44:22.742Z,,123,Korea Republic Of,2817,no,N/A,,,292742,0,,1,0,2024/12/28 05:44:22,NonProxyTraffic,,,VISION-SEOUL-FW.seoulfw 1,2024/12/28 05:44:22,VISION-SEOUL-FW,0,1,192.168.200.252,,networking,0,0x8000000000000000,,0,1,123,0,7444489203827593617,1,ntp-base,,untrust,,ethernet1/2,,023201001129,ntp,ae1,vsys1,,0,,ALLOW-OUTBOUND,,any,PaloLog-forward,,,trust,0,allow,0,203.248.240.140,203.248.240.140,,,,seoul\administrator,,2024/12/28 05:44:22,2,,,0,0,0x40007a,"used-by-malware,pervasive-use",,,network-protocol,no,ntp-base,,123,TRAFFIC,,,,90,,2024-12-28T05:44:22.857+09:00,,2024/12/28 05:43:48,0,,192.168.0.0-192.168.255.255,,,VISION-SEOUL-FW.seoulfw 1,192.168.200.252,,,,end,118.128.43.82,,25403
<14>Dec 28 05:44:22 VISION-SEOUL-FW.seoulfw 1,from-policy,,,0,,0,0,,,,unknown,udp,,"[""_dateparsefailure""]",aged-out,dbd7a6c6-ca36-4398-80b3-5bab8fa733c2,,1564,0,2024-12-27T20:44:22.742Z,,5060,Korea Republic Of,2817,no,N/A,,,295047,0,,5,0,2024/12/28 05:44:22,NonProxyTraffic,,,VISION-SEOUL-FW.seoulfw 1,2024/12/28 05:44:22,VISION-SEOUL-FW,3,1,192.168.200.252,,unknown,0,0x8000000000000000,,1438,1,5060,0,7444489203827593615,2,insufficient-data,,untrust,,ethernet1/2,,023201001129,,ae1,vsys1,,0,,ALLOW-OUTBOUND,,any,PaloLog-forward,,,trust,0,allow,0,210.207.255.47,210.207.255.47,,,,,,2024/12/28 05:44:22,1,,,0,0,0x400019,,,,unknown,no,insufficient-data,,5060,TRAFFIC,,,,3002,,2024-12-28T05:44:22.856+09:00,,2024/12/28 05:43:48,0,,192.168.0.0-192.168.255.255,,,VISION-SEOUL-FW.seoulfw 1,192.168.200.107,,,,end,118.128.43.82,,46950
<14>Dec 28 05:44:17 VISION-SEOUL-FW.seoulfw 1,from-policy,,,0,,0,0,,,,encrypted-tunnel,tcp,,"[""_dateparsefailure""]",tcp-fin,dbd7a6c6-ca36-4398-80b3-5bab8fa733c2,,24007,0,2024-12-27T20:44:17.744Z,,443,United States,2817,no,N/A,,,296391,0,,1060,0,2024/12/28 05:44:17,NonProxyTraffic,,,VISION-SEOUL-FW.seoulfw 1,2024/12/28 05:44:17,VISION-SEOUL-FW,734,1,192.168.200.252,,networking,0,0x8000000000000000,,895509,1,30121,0,7444489203827593614,326,ssl,,untrust,,ethernet1/2,,023201001129,,ae2,vsys1,,0,,ALLOW-OUTBOUND,,license-expired,PaloLog-forward,,,SERVER,59,allow,0,162.159.240.125,162.159.240.125,,,,,,2024/12/28 05:44:17,4,,,0,0,0x40047a,"used-by-malware,able-to-transfer-file,has-known-vulnerability,tunnel-other-application,pervasive-use",,,browser-based,no,ssl,,443,TRAFFIC,,,,919516,,2024-12-28T05:44:17.856+09:00,,2024/12/28 05:43:03,0,,192.168.0.0-192.168.255.255,,,VISION-SEOUL-FW.seoulfw 1,192.168.100.171,,,,end,118.128.43.82,,22154
<14>Dec 28 05:44:17 VISION-SEOUL-FW.seoulfw 1,from-policy,,,0,,0,0,,,,internet-utility,tcp,,"[""_dateparsefailure""]",tcp-fin,8b168a38-7dd9-4435-8188-4d9dc014666e,,2799,0,2024-12-27T20:44:17.743Z,,443,Korea Republic Of,2817,no,N/A,,,294303,0,,44,0,2024/12/28 05:44:17,NonProxyTraffic,,,VISION-SEOUL-FW.seoulfw 1,2024/12/28 05:44:17,VISION-SEOUL-FW,14,1,192.168.200.252,,general-internet,0,0x8000000000000000,,13138,1,46348,0,7444489203827593610,30,web-browsing,,untrust,,ethernet1/2,,023201001129,,ethernet1/2,vsys1,,0,,Allow-Global-Protect-Portal,,license-expired,PaloLog-forward,,,untrust,0,allow,0,118.128.43.82,118.128.43.82,,,,,,2024/12/28 05:44:17,4,,,0,0,0x140201c,"used-by-malware,able-to-transfer-file,has-known-vulnerability,tunnel-other-application,pervasive-use",,,browser-based,no,web-browsing,,20077,TRAFFIC,,,,15937,,2024-12-28T05:44:17.856+09:00,,2024/12/28 05:44:02,0,,Bulgaria,,,VISION-SEOUL-FW.seoulfw 1,31.13.224.202,,,,end,31.13.224.202,,46348
<14>Dec 28 05:44:17 VISION-SEOUL-FW.seoulfw 1,from-policy,,,0,,0,0,,,,internet-utility,tcp,,"[""_dateparsefailure""]",tcp-fin,8b168a38-7dd9-4435-8188-4d9dc014666e,,2640,0,2024-12-27T20:44:17.743Z,,443,Korea Republic Of,2817,no,N/A,,,287176,0,,44,0,2024/12/28 05:44:17,NonProxyTraffic,,,VISION-SEOUL-FW.seoulfw 1,2024/12/28 05:44:17,VISION-SEOUL-FW,14,1,192.168.200.252,,general-internet,0,0x8000000000000000,,13138,1,43556,0,7444489203827593613,30,web-browsing,,untrust,,ethernet1/2,,023201001129,,ethernet1/2,vsys1,,0,,Allow-Global-Protect-Portal,,license-expired,PaloLog-forward,,,untrust,1,allow,0,118.128.43.82,118.128.43.82,,,,,,2024/12/28 05:44:17,4,,,0,0,0x140201c,"used-by-malware,able-to-transfer-file,has-known-vulnerability,tunnel-other-application,pervasive-use",,,browser-based,no,web-browsing,,20077,TRAFFIC,,,,15778,,2024-12-28T05:44:17.856+09:00,,2024/12/28 05:44:01,0,,Bulgaria,,,VISION-SEOUL-FW.seoulfw 1,31.13.224.202,,,,end,31.13.224.202,,43556
<14>Dec 28 05:44:17 VISION-SEOUL-FW.seoulfw 1,from-policy,,,0,,0,0,,,,internet-utility,tcp,,"[""_dateparsefailure""]",tcp-fin,8b168a38-7dd9-4435-8188-4d9dc014666e,,2489,0,2024-12-27T20:44:17.743Z,,443,Korea Republic Of,2817,no,N/A,,,295278,0,,42,0,2024/12/28 05:44:17,NonProxyTraffic,,,VISION-SEOUL-FW.seoulfw 1,2024/12/28 05:44:17,VISION-SEOUL-FW,14,1,192.168.200.252,,general-internet,0,0x8000000000000000,,13138,1,40570,0,7444489203827593608,28,web-browsing,,untrust,,ethernet1/2,,023201001129,,ethernet1/2,vsys1,,0,,Allow-Global-Protect-Portal,,license-expired,PaloLog-forward,,,untrust,1,allow,0,118.128.43.82,118.128.43.82,,,,,,2024/12/28 05:44:17,4,,,0,0,0x140201c,"used-by-malware,able-to-transfer-file,has-known-vulnerability,tunnel-other-application,pervasive-use",,,browser-based,no,web-browsing,,20077,TRAFFIC,,,,15627,,2024-12-28T05:44:17.856+09:00,,2024/12/28 05:44:00,0,,Bulgaria,,,VISION-SEOUL-FW.seoulfw 1,31.13.224.202,,,,end,31.13.224.202,,40570
<14>Dec 28 05:44:17 VISION-SEOUL-FW.seoulfw 1,from-policy,,,0,,0,0,,,,internet-utility,tcp,,"[""_dateparsefailure""]",tcp-fin,8b168a38-7dd9-4435-8188-4d9dc014666e,,2575,0,2024-12-27T20:44:17.743Z,,443,Korea Republic Of,2817,no,N/A,,,294793,0,,43,0,2024/12/28 05:44:17,NonProxyTraffic,,,VISION-SEOUL-FW.seoulfw 1,2024/12/28 05:44:17,VISION-SEOUL-FW,14,1,192.168.200.252,,general-internet,0,0x8000000000000000,,13138,1,37866,0,7444489203827593606,29,web-browsing,,untrust,,ethernet1/2,,023201001129,,ethernet1/2,vsys1,,0,,Allow-Global-Protect-Portal,,license-expired,PaloLog-forward,,,untrust,1,allow,0,118.128.43.82,118.128.43.82,,,,,,2024/12/28 05:44:17,4,,,0,0,0x140201c,"used-by-malware,able-to-transfer-file,has-known-vulnerability,tunnel-other-application,pervasive-use",,,browser-based,no,web-browsing,,20077,TRAFFIC,,,,15713,,2024-12-28T05:44:17.856+09:00,,2024/12/28 05:43:59,0,,Bulgaria,,,VISION-SEOUL-FW.seoulfw 1,31.13.224.202,,,,end,31.13.224.202,,37866
<14>Dec 28 05:44:17 VISION-SEOUL-FW.seoulfw 1,from-policy,,,0,,0,0,,,,internet-utility,tcp,,"[""_dateparsefailure""]",tcp-fin,8b168a38-7dd9-4435-8188-4d9dc014666e,,2797,0,2024-12-27T20:44:17.743Z,,443,Korea Republic Of,2817,no,N/A,,,295625,0,,44,0,2024/12/28 05:44:17,NonProxyTraffic,,,VISION-SEOUL-FW.seoulfw 1,2024/12/28 05:44:17,VISION-SEOUL-FW,14,1,192.168.200.252,,general-internet,0,0x8000000000000000,,13138,1,60204,0,7444489203827593605,30,web-browsing,,untrust,,ethernet1/2,,023201001129,,ethernet1/2,vsys1,,0,,Allow-Global-Protect-Portal,,license-expired,PaloLog-forward,,,untrust,1,allow,0,118.128.43.82,118.128.43.82,,,,,,2024/12/28 05:44:17,4,,,0,0,0x140201c,"used-by-malware,able-to-transfer-file,has-known-vulnerability,tunnel-other-application,pervasive-use",,,browser-based,no,web-browsing,,20077,TRAFFIC,,,,15935,,2024-12-28T05:44:17.856+09:00,,2024/12/28 05:43:58,0,,Bulgaria,,,VISION-SEOUL-FW.seoulfw 1,31.13.224.202,,,,end,31.13.224.202,,60204
<14>Dec 28 05:44:17 VISION-SEOUL-FW.seoulfw 1,from-policy,,,0,,0,0,,,,internet-utility,tcp,,"[""_dateparsefailure""]",tcp-fin,8b168a38-7dd9-4435-8188-4d9dc014666e,,2666,0,2024-12-27T20:44:17.743Z,,443,Korea Republic Of,2817,no,N/A,,,294422,0,,44,0,2024/12/28 05:44:17,NonProxyTraffic,,,VISION-SEOUL-FW.seoulfw 1,2024/12/28 05:44:17,VISION-SEOUL-FW,14,1,192.168.200.252,,general-internet,0,0x8000000000000000,,13138,1,35036,0,7444489203827593607,30,web-browsing,,untrust,,ethernet1/2,,023201001129,,ethernet1/2,vsys1,,0,,Allow-Global-Protect-Portal,,license-expired,PaloLog-forward,,,untrust,1,allow,0,118.128.43.82,118.128.43.82,,,,,,2024/12/28 05:44:17,4,,,0,0,0x140201c,"used-by-malware,able-to-transfer-file,has-known-vulnerability,tunnel-other-application,pervasive-use",,,browser-based,no,web-browsing,,20077,TRAFFIC,,,,15804,,2024-12-28T05:44:17.856+09:00,,2024/12/28 05:43:59,0,,Bulgaria,,,VISION-SEOUL-FW.seoulfw 1,31.13.224.202,,,,end,31.13.224.202,,35036
<14>Dec 28 05:44:17 VISION-SEOUL-FW.seoulfw 1,from-policy,,,0,,0,0,,,,unknown,udp,,"[""_dateparsefailure""]",policy-deny,e90cbdfb-a61c-4c37-92ea-1fc8d7cd4431,,60,0,2024-12-27T20:44:17.743Z,,7062,Korea Republic Of,2817,no,N/A,,,0,0,,1,0,2024/12/28 05:44:17,NonProxyTraffic,,,VISION-SEOUL-FW.seoulfw 1,2024/12/28 05:44:17,VISION-SEOUL-FW,0,1,192.168.200.252,,unknown,0,0x8000000000000000,,0,1,38059,0,7444489203827593609,1,not-applicable,,untrust,,,,023201001129,,ethernet1/2,vsys1,,0,,intrazone-default,,any,PaloLog-forward,,,untrust,0,deny,0,0.0.0.0,118.128.43.82,,,,,,2024/12/28 05:44:17,1,,,0,0,0x0,,,,unknown,no,not-applicable,,0,TRAFFIC,,,,60,,2024-12-28T05:44:17.856+09:00,,2024/12/28 05:44:16,0,,Korea Republic Of,,,VISION-SEOUL-FW.seoulfw 1,110.45.188.132,,,,drop,0.0.0.0,,0
<14>Dec 28 05:44:17 VISION-SEOUL-FW.seoulfw 1,from-policy,,,0,,0,0,,,,infrastructure,udp,,"[""_dateparsefailure""]",aged-out,dbd7a6c6-ca36-4398-80b3-5bab8fa733c2,,95,0,2024-12-27T20:44:17.742Z,,53,Korea Republic Of,2817,no,N/A,,,295648,0,,2,0,2024/12/28 05:44:17,NonProxyTraffic,,,VISION-SEOUL-FW.seoulfw 1,2024/12/28 05:44:17,VISION-SEOUL-FW,1,1,192.168.200.252,,networking,0,0x8000000000000000,,111,1,51185,0,7444489203827593603,1,dns-base,,untrust,,ethernet1/2,,023201001129,dns,ae2,vsys1,,0,,ALLOW-OUTBOUND,,any,PaloLog-forward,,,SERVER,0,allow,0,168.126.63.1,168.126.63.1,,,,,,2024/12/28 05:44:17,3,,,0,0,0x400019,"used-by-malware,has-known-vulnerability,pervasive-use",,,network-protocol,no,dns-base,,53,TRAFFIC,,,,206,,2024-12-28T05:44:17.856+09:00,,2024/12/28 05:43:43,0,,192.168.0.0-192.168.255.255,,,VISION-SEOUL-FW.seoulfw 1,192.168.100.170,,,,end,118.128.43.82,,19817
<14>Dec 28 05:44:17 VISION-SEOUL-FW.seoulfw 1,from-policy,,,0,,0,0,,,,internet-utility,tcp,,"[""_dateparsefailure""]",tcp-fin,8b168a38-7dd9-4435-8188-4d9dc014666e,,2566,0,2024-12-27T20:44:17.742Z,,443,Korea Republic Of,2817,no,N/A,,,296129,0,,41,0,2024/12/28 05:44:17,NonProxyTraffic,,,VISION-SEOUL-FW.seoulfw 1,2024/12/28 05:44:17,VISION-SEOUL-FW,14,1,192.168.200.252,,general-internet,0,0x8000000000000000,,13138,1,57202,0,7444489203827593602,27,web-browsing,,untrust,,ethernet1/2,,023201001129,,ethernet1/2,vsys1,,0,,Allow-Global-Protect-Portal,,license-expired,PaloLog-forward,,,untrust,1,allow,0,118.128.43.82,118.128.43.82,,,,,,2024/12/28 05:44:17,4,,,0,0,0x140201c,"used-by-malware,able-to-transfer-file,has-known-vulnerability,tunnel-other-application,pervasive-use",,,browser-based,no,web-browsing,,20077,TRAFFIC,,,,15704,,2024-12-28T05:44:17.856+09:00,,2024/12/28 05:43:57,0,,Bulgaria,,,VISION-SEOUL-FW.seoulfw 1,31.13.224.202,,,,end,31.13.224.202,,57202
<14>Dec 28 05:44:17 VISION-SEOUL-FW.seoulfw 1,from-policy,,,0,,0,0,,,,unknown,udp,,"[""_dateparsefailure""]",policy-deny,e90cbdfb-a61c-4c37-92ea-1fc8d7cd4431,,418,0,2024-12-27T20:44:17.742Z,,15060,Korea Republic Of,2817,no,N/A,,,0,0,,1,0,2024/12/28 05:44:17,NonProxyTraffic,,,VISION-SEOUL-FW.seoulfw 1,2024/12/28 05:44:17,VISION-SEOUL-FW,0,1,192.168.200.252,,unknown,0,0x8000000000000000,,0,1,49429,0,7444489203827593604,1,not-applicable,,untrust,,,,023201001129,,ethernet1/2,vsys1,,0,,intrazone-default,,any,PaloLog-forward,,,untrust,0,deny,0,0.0.0.0,118.128.43.82,,,,,,2024/12/28 05:44:17,1,,,0,0,0x0,,,,unknown,no,not-applicable,,0,TRAFFIC,,,,418,,2024-12-28T05:44:17.856+09:00,,2024/12/28 05:44:13,0,,United Kingdom,,,VISION-SEOUL-FW.seoulfw 1,35.203.211.189,,,,drop,0.0.0.0,,0
<14>Dec 28 05:44:17 VISION-SEOUL-FW.seoulfw 1,from-policy,,,0,,0,0,,,,internet-utility,icmp,,"[""_dateparsefailure""]",aged-out,dbd7a6c6-ca36-4398-80b3-5bab8fa733c2,,294,0,2024-12-27T20:44:17.741Z,,0,192.168.0.0-192.168.255.255,2817,no,N/A,,,295549,0,,6,0,2024/12/28 05:44:17,NonProxyTraffic,,,VISION-SEOUL-FW.seoulfw 1,2024/12/28 05:44:17,VISION-SEOUL-FW,3,1,192.168.200.252,,general-internet,0,0x8000000000000000,,294,3,28183,0,7444489203827593599,3,untunneled,,trust,,ae1,,023201001129,,ae1,vsys1,,0,,ALLOW-OUTBOUND,,any,PaloLog-forward,,,trust,0,allow,0,0.0.0.0,192.168.200.1,,,,,,2024/12/28 05:44:17,2,,,0,0,0x100019,"has-known-vulnerability,tunnel-other-application,pervasive-use",,,network-protocol,no,ping,,0,TRAFFIC,,,,588,,2024-12-28T05:44:17.856+09:00,,2024/12/28 05:44:01,0,,192.168.0.0-192.168.255.255,,,VISION-SEOUL-FW.seoulfw 1,192.168.200.254,,,,end,0.0.0.0,,0
<14>Dec 28 05:44:17 VISION-SEOUL-FW.seoulfw 1,from-policy,,,0,,0,0,,,,infrastructure,udp,,"[""_dateparsefailure""]",aged-out,dbd7a6c6-ca36-4398-80b3-5bab8fa733c2,,95,0,2024-12-27T20:44:17.741Z,,53,Korea Republic Of,2817,no,N/A,,,287218,0,,2,0,2024/12/28 05:44:17,NonProxyTraffic,,,VISION-SEOUL-FW.seoulfw 1,2024/12/28 05:44:17,VISION-SEOUL-FW,1,1,192.168.200.252,,networking,0,0x8000000000000000,,156,1,43181,0,7444489203827593601,1,dns-base,,untrust,,ethernet1/2,,023201001129,dns,ae2,vsys1,,0,,ALLOW-OUTBOUND,,any,PaloLog-forward,,,SERVER,0,allow,0,168.126.63.1,168.126.63.1,,,,,,2024/12/28 05:44:17,3,,,0,0,0x400019,"used-by-malware,has-known-vulnerability,pervasive-use",,,network-protocol,no,dns-base,,53,TRAFFIC,,,,251,,2024-12-28T05:44:17.856+09:00,,2024/12/28 05:43:43,0,,192.168.0.0-192.168.255.255,,,VISION-SEOUL-FW.seoulfw 1,192.168.100.170,,,,end,118.128.43.82,,61647
<14>Dec 28 05:44:12 VISION-SEOUL-FW.seoulfw 1,from-policy,,,0,,0,0,,,,internet-utility,tcp,,"[""_dateparsefailure""]",tcp-fin,8b168a38-7dd9-4435-8188-4d9dc014666e,,2341,0,2024-12-27T20:44:12.744Z,,443,Korea Republic Of,2817,no,N/A,,,274880,0,,39,0,2024/12/28 05:44:12,NonProxyTraffic,,,VISION-SEOUL-FW.seoulfw 1,2024/12/28 05:44:12,VISION-SEOUL-FW,14,1,192.168.200.252,,general-internet,0,0x8000000000000000,,13138,1,54066,0,7444489203827593597,25,web-browsing,,untrust,,ethernet1/2,,023201001129,,ethernet1/2,vsys1,,0,,Allow-Global-Protect-Portal,,license-expired,PaloLog-forward,,,untrust,1,allow,0,118.128.43.82,118.128.43.82,,,,,,2024/12/28 05:44:12,4,,,0,0,0x140201c,"used-by-malware,able-to-transfer-file,has-known-vulnerability,tunnel-other-application,pervasive-use",,,browser-based,no,web-browsing,,20077,TRAFFIC,,,,15479,,2024-12-28T05:44:12.856+09:00,,2024/12/28 05:43:56,0,,Bulgaria,,,VISION-SEOUL-FW.seoulfw 1,31.13.224.202,,,,end,31.13.224.202,,54066
<14>Dec 28 05:44:12 VISION-SEOUL-FW.seoulfw 1,from-policy,,,0,,0,0,,,,internet-utility,tcp,,"[""_dateparsefailure""]",tcp-fin,8b168a38-7dd9-4435-8188-4d9dc014666e,,2484,0,2024-12-27T20:44:12.744Z,,443,Korea Republic Of,2817,no,N/A,,,296327,0,,42,0,2024/12/28 05:44:12,NonProxyTraffic,,,VISION-SEOUL-FW.seoulfw 1,2024/12/28 05:44:12,VISION-SEOUL-FW,14,1,192.168.200.252,,general-internet,0,0x8000000000000000,,13138,1,51222,0,7444489203827593598,28,web-browsing,,untrust,,ethernet1/2,,023201001129,,ethernet1/2,vsys1,,0,,Allow-Global-Protect-Portal,,license-expired,PaloLog-forward,,,untrust,1,allow,0,118.128.43.82,118.128.43.82,,,,,,2024/12/28 05:44:12,4,,,0,0,0x140201c,"used-by-malware,able-to-transfer-file,has-known-vulnerability,tunnel-other-application,pervasive-use",,,browser-based,no,web-browsing,,20077,TRAFFIC,,,,15622,,2024-12-28T05:44:12.856+09:00,,2024/12/28 05:43:56,0,,Bulgaria,,,VISION-SEOUL-FW.seoulfw 1,31.13.224.202,,,,end,31.13.224.202,,51222
<14>Dec 28 05:44:12 VISION-SEOUL-FW.seoulfw 1,from-policy,,,0,,0,0,,,,unknown,tcp,,"[""_dateparsefailure""]",policy-deny,e90cbdfb-a61c-4c37-92ea-1fc8d7cd4431,,60,0,2024-12-27T20:44:12.744Z,,8899,Korea Republic Of,2817,no,N/A,,,0,0,,1,0,2024/12/28 05:44:12,NonProxyTraffic,,,VISION-SEOUL-FW.seoulfw 1,2024/12/28 05:44:12,VISION-SEOUL-FW,0,1,192.168.200.252,,unknown,0,0x8000000000000000,,0,1,40650,0,7444489203827593596,1,not-applicable,,untrust,,,,023201001129,,ethernet1/2,vsys1,,0,,intrazone-default,,any,PaloLog-forward,,,untrust,0,deny,0,0.0.0.0,118.128.43.82,,,,,,2024/12/28 05:44:12,1,,,0,0,0x0,,,,unknown,no,not-applicable,,0,TRAFFIC,,,,60,,2024-12-28T05:44:12.856+09:00,,2024/12/28 05:44:12,0,,Poland,,,VISION-SEOUL-FW.seoulfw 1,80.66.83.47,,,,drop,0.0.0.0,,0
<14>Dec 28 05:44:12 VISION-SEOUL-FW.seoulfw 1,from-policy,,,0,,0,0,,,,infrastructure,udp,,"[""_dateparsefailure""]",aged-out,cbf56f07-16ed-4bae-863c-0df8b75794bb,,182,0,2024-12-27T20:44:12.743Z,,53,192.168.0.0-192.168.255.255,2817,no,N/A,,,294028,0,,4,0,2024/12/28 05:44:12,NonProxyTraffic,,,VISION-SEOUL-FW.seoulfw 1,2024/12/28 05:44:12,VISION-SEOUL-FW,2,1,192.168.200.252,,networking,0,0x8000000000000000,,276,1,45622,0,7444489203827593593,2,dns-base,,SERVER,,ae2,,023201001129,dns,tunnel.1,vsys1,,0,,Allow-IPSEC,,any,PaloLog-forward,,,IPSecVPN,0,allow,0,0.0.0.0,192.168.100.103,,,,,,2024/12/28 05:44:12,3,,,0,0,0x19,"used-by-malware,has-known-vulnerability,pervasive-use",,,network-protocol,no,dns-base,,0,TRAFFIC,,,,458,,2024-12-28T05:44:12.856+09:00,,2024/12/28 05:43:41,0,,192.168.0.0-192.168.255.255,,,VISION-SEOUL-FW.seoulfw 1,192.168.1.253,,,,end,0.0.0.0,,0
<14>Dec 28 05:44:12 VISION-SEOUL-FW.seoulfw 1,from-policy,,,0,,0,0,,,,unknown,udp,,"[""_dateparsefailure""]",policy-deny,e90cbdfb-a61c-4c37-92ea-1fc8d7cd4431,,60,0,2024-12-27T20:44:12.743Z,,7062,Korea Republic Of,2817,no,N/A,,,0,0,,1,0,2024/12/28 05:44:12,NonProxyTraffic,,,VISION-SEOUL-FW.seoulfw 1,2024/12/28 05:44:12,VISION-SEOUL-FW,0,1,192.168.200.252,,unknown,0,0x8000000000000000,,0,1,38059,0,7444489203827593594,1,not-applicable,,untrust,,,,023201001129,,ethernet1/2,vsys1,,0,,intrazone-default,,any,PaloLog-forward,,,untrust,0,deny,0,0.0.0.0,118.128.43.82,,,,,,2024/12/28 05:44:12,1,,,0,0,0x0,,,,unknown,no,not-applicable,,0,TRAFFIC,,,,60,,2024-12-28T05:44:12.856+09:00,,2024/12/28 05:44:11,0,,Korea Republic Of,,,VISION-SEOUL-FW.seoulfw 1,110.45.188.132,,,,drop,0.0.0.0,,0
<14>Dec 28 05:44:12 VISION-SEOUL-FW.seoulfw 1,from-policy,,,0,,0,0,,,,infrastructure,udp,,"[""_dateparsefailure""]",aged-out,dbd7a6c6-ca36-4398-80b3-5bab8fa733c2,,102,0,2024-12-27T20:44:12.743Z,,53,Korea Republic Of,2817,no,N/A,,,295951,0,,2,0,2024/12/28 05:44:12,NonProxyTraffic,,,VISION-SEOUL-FW.seoulfw 1,2024/12/28 05:44:12,VISION-SEOUL-FW,1,1,192.168.200.252,,networking,0,0x8000000000000000,,186,1,52211,0,7444489203827593592,1,dns-base,,untrust,,ethernet1/2,,023201001129,dns,ae2,vsys1,,0,,ALLOW-OUTBOUND,,any,PaloLog-forward,,,SERVER,0,allow,0,168.126.63.1,168.126.63.1,,,,,,2024/12/28 05:44:12,3,,,0,0,0x400019,"used-by-malware,has-known-vulnerability,pervasive-use",,,network-protocol,no,dns-base,,53,TRAFFIC,,,,288,,2024-12-28T05:44:12.856+09:00,,2024/12/28 05:43:41,0,,192.168.0.0-192.168.255.255,,,VISION-SEOUL-FW.seoulfw 1,192.168.100.103,,,,end,118.128.43.82,,35194
<14>Dec 28 05:44:12 VISION-SEOUL-FW.seoulfw 1,from-policy,,,0,,0,0,,,,unknown,udp,,"[""_dateparsefailure""]",policy-deny,e90cbdfb-a61c-4c37-92ea-1fc8d7cd4431,,60,0,2024-12-27T20:44:12.743Z,,63588,Korea Republic Of,2817,no,N/A,,,0,0,,1,0,2024/12/28 05:44:12,NonProxyTraffic,,,VISION-SEOUL-FW.seoulfw 1,2024/12/28 05:44:12,VISION-SEOUL-FW,0,1,192.168.200.252,,unknown,0,0x8000000000000000,,0,1,38616,0,7444489203827593595,1,not-applicable,,untrust,,,,023201001129,,ethernet1/2,vsys1,,0,,intrazone-default,,any,PaloLog-forward,,,untrust,0,deny,0,0.0.0.0,118.128.43.82,,,,,,2024/12/28 05:44:12,1,,,0,0,0x0,,,,unknown,no,not-applicable,,0,TRAFFIC,,,,60,,2024-12-28T05:44:12.856+09:00,,2024/12/28 05:44:11,0,,Korea Republic Of,,,VISION-SEOUL-FW.seoulfw 1,110.45.192.90,,,,drop,0.0.0.0,,0
<14>Dec 28 05:44:12 VISION-SEOUL-FW.seoulfw 1,from-policy,,,0,,0,0,,,,internet-utility,tcp,,"[""_dateparsefailure""]",tcp-fin,8b168a38-7dd9-4435-8188-4d9dc014666e,,2623,0,2024-12-27T20:44:12.742Z,,443,Korea Republic Of,2817,no,N/A,,,294357,0,,43,0,2024/12/28 05:44:12,NonProxyTraffic,,,VISION-SEOUL-FW.seoulfw 1,2024/12/28 05:44:12,VISION-SEOUL-FW,14,1,192.168.200.252,,general-internet,0,0x8000000000000000,,13138,1,48298,0,7444489203827593591,29,web-browsing,,untrust,,ethernet1/2,,023201001129,,ethernet1/2,vsys1,,0,,Allow-Global-Protect-Portal,,license-expired,PaloLog-forward,,,untrust,1,allow,0,118.128.43.82,118.128.43.82,,,,,,2024/12/28 05:44:12,4,,,0,0,0x140201c,"used-by-malware,able-to-transfer-file,has-known-vulnerability,tunnel-other-application,pervasive-use",,,browser-based,no,web-browsing,,20077,TRAFFIC,,,,15761,,2024-12-28T05:44:12.856+09:00,,2024/12/28 05:43:55,0,,Bulgaria,,,VISION-SEOUL-FW.seoulfw 1,31.13.224.202,,,,end,31.13.224.202,,48298
<14>Dec 28 05:44:12 VISION-SEOUL-FW.seoulfw 1,from-policy,,,0,,0,0,,,,internet-utility,tcp,,"[""_dateparsefailure""]",tcp-fin,8b168a38-7dd9-4435-8188-4d9dc014666e,,2338,0,2024-12-27T20:44:12.742Z,,443,Korea Republic Of,2817,no,N/A,,,287354,0,,40,0,2024/12/28 05:44:12,NonProxyTraffic,,,VISION-SEOUL-FW.seoulfw 1,2024/12/28 05:44:12,VISION-SEOUL-FW,14,1,192.168.200.252,,general-internet,0,0x8000000000000000,,13138,1,45436,0,7444489203827593590,26,web-browsing,,untrust,,ethernet1/2,,023201001129,,ethernet1/2,vsys1,,0,,Allow-Global-Protect-Portal,,license-expired,PaloLog-forward,,,untrust,1,allow,0,118.128.43.82,118.128.43.82,,,,,,2024/12/28 05:44:12,4,,,0,0,0x140201c,"used-by-malware,able-to-transfer-file,has-known-vulnerability,tunnel-other-application,pervasive-use",,,browser-based,no,web-browsing,,20077,TRAFFIC,,,,15476,,2024-12-28T05:44:12.856+09:00,,2024/12/28 05:43:54,0,,Bulgaria,,,VISION-SEOUL-FW.seoulfw 1,31.13.224.202,,,,end,31.13.224.202,,45436
<14>Dec 28 05:44:12 VISION-SEOUL-FW.seoulfw 1,from-policy,,,0,,0,0,,,,infrastructure,udp,,"[""_dateparsefailure""]",aged-out,dbd7a6c6-ca36-4398-80b3-5bab8fa733c2,,87,0,2024-12-27T20:44:12.742Z,,53,Korea Republic Of,2817,no,N/A,,,282778,0,,2,0,2024/12/28 05:44:12,NonProxyTraffic,,,VISION-SEOUL-FW.seoulfw 1,2024/12/28 05:44:12,VISION-SEOUL-FW,1,1,192.168.200.252,,networking,0,0x8000000000000000,,199,1,42557,0,7444489203827593589,1,dns-base,,untrust,,ethernet1/2,,023201001129,dns,ae2,vsys1,,0,,ALLOW-OUTBOUND,,any,PaloLog-forward,,,SERVER,0,allow,0,168.126.63.1,168.126.63.1,,,,,,2024/12/28 05:44:12,3,,,0,0,0x400019,"used-by-malware,has-known-vulnerability,pervasive-use",,,network-protocol,no,dns-base,,53,TRAFFIC,,,,286,,2024-12-28T05:44:12.856+09:00,,2024/12/28 05:43:39,0,,192.168.0.0-192.168.255.255,,,VISION-SEOUL-FW.seoulfw 1,192.168.100.13,,,,end,118.128.43.82,,52488
<14>Dec 28 05:44:12 VISION-SEOUL-FW.seoulfw 1,from-policy,,,0,,0,0,,,,internet-utility,tcp,,"[""_dateparsefailure""]",tcp-fin,8b168a38-7dd9-4435-8188-4d9dc014666e,,2631,0,2024-12-27T20:44:12.741Z,,443,Korea Republic Of,2817,no,N/A,,,272185,0,,43,0,2024/12/28 05:44:12,NonProxyTraffic,,,VISION-SEOUL-FW.seoulfw 1,2024/12/28 05:44:12,VISION-SEOUL-FW,14,1,192.168.200.252,,general-internet,0,0x8000000000000000,,13138,1,36784,0,7444489203827593585,29,web-browsing,,untrust,,ethernet1/2,,023201001129,,ethernet1/2,vsys1,,0,,Allow-Global-Protect-Portal,,license-expired,PaloLog-forward,,,untrust,1,allow,0,118.128.43.82,118.128.43.82,,,,,,2024/12/28 05:44:12,4,,,0,0,0x140201c,"used-by-malware,able-to-transfer-file,has-known-vulnerability,tunnel-other-application,pervasive-use",,,browser-based,no,web-browsing,,20077,TRAFFIC,,,,15769,,2024-12-28T05:44:12.856+09:00,,2024/12/28 05:43:52,0,,Bulgaria,,,VISION-SEOUL-FW.seoulfw 1,31.13.224.202,,,,end,31.13.224.202,,36784
<14>Dec 28 05:44:12 VISION-SEOUL-FW.seoulfw 1,from-policy,,,0,,0,0,,,,internet-utility,tcp,,"[""_dateparsefailure""]",tcp-fin,8b168a38-7dd9-4435-8188-4d9dc014666e,,2737,0,2024-12-27T20:44:12.741Z,,443,Korea Republic Of,2817,no,N/A,,,294527,0,,44,0,2024/12/28 05:44:12,NonProxyTraffic,,,VISION-SEOUL-FW.seoulfw 1,2024/12/28 05:44:12,VISION-SEOUL-FW,14,1,192.168.200.252,,general-internet,0,0x8000000000000000,,13138,1,42410,0,7444489203827593587,30,web-browsing,,untrust,,ethernet1/2,,023201001129,,ethernet1/2,vsys1,,0,,Allow-Global-Protect-Portal,,license-expired,PaloLog-forward,,,untrust,1,allow,0,118.128.43.82,118.128.43.82,,,,,,2024/12/28 05:44:12,4,,,0,0,0x140201c,"used-by-malware,able-to-transfer-file,has-known-vulnerability,tunnel-other-application,pervasive-use",,,browser-based,no,web-browsing,,20077,TRAFFIC,,,,15875,,2024-12-28T05:44:12.856+09:00,,2024/12/28 05:43:53,0,,Bulgaria,,,VISION-SEOUL-FW.seoulfw 1,31.13.224.202,,,,end,31.13.224.202,,42410
<14>Dec 28 05:44:12 VISION-SEOUL-FW.seoulfw 1,from-policy,,,0,,0,0,,,,infrastructure,udp,,"[""_dateparsefailure""]",aged-out,dbd7a6c6-ca36-4398-80b3-5bab8fa733c2,,87,0,2024-12-27T20:44:12.741Z,,53,Korea Republic Of,2817,no,N/A,,,296305,0,,2,0,2024/12/28 05:44:12,NonProxyTraffic,,,VISION-SEOUL-FW.seoulfw 1,2024/12/28 05:44:12,VISION-SEOUL-FW,1,1,192.168.200.252,,networking,0,0x8000000000000000,,151,1,45645,0,7444489203827593588,1,dns-base,,untrust,,ethernet1/2,,023201001129,dns,ae2,vsys1,,0,,ALLOW-OUTBOUND,,any,PaloLog-forward,,,SERVER,0,allow,0,168.126.63.1,168.126.63.1,,,,,,2024/12/28 05:44:12,3,,,0,0,0x400019,"used-by-malware,has-known-vulnerability,pervasive-use",,,network-protocol,no,dns-base,,53,TRAFFIC,,,,238,,2024-12-28T05:44:12.856+09:00,,2024/12/28 05:43:39,0,,192.168.0.0-192.168.255.255,,,VISION-SEOUL-FW.seoulfw 1,192.168.100.13,,,,end,118.128.43.82,,49879
<14>Dec 28 05:44:12 VISION-SEOUL-FW.seoulfw 1,from-policy,,,0,,0,0,,,,internet-utility,tcp,,"[""_dateparsefailure""]",tcp-fin,8b168a38-7dd9-4435-8188-4d9dc014666e,,2290,0,2024-12-27T20:44:12.741Z,,443,Korea Republic Of,2817,no,N/A,,,295391,0,,40,0,2024/12/28 05:44:12,NonProxyTraffic,,,VISION-SEOUL-FW.seoulfw 1,2024/12/28 05:44:12,VISION-SEOUL-FW,14,1,192.168.200.252,,general-internet,0,0x8000000000000000,,13138,1,39530,0,7444489203827593584,26,web-browsing,,untrust,,ethernet1/2,,023201001129,,ethernet1/2,vsys1,,0,,Allow-Global-Protect-Portal,,license-expired,PaloLog-forward,,,untrust,0,allow,0,118.128.43.82,118.128.43.82,,,,,,2024/12/28 05:44:12,4,,,0,0,0x140201c,"used-by-malware,able-to-transfer-file,has-known-vulnerability,tunnel-other-application,pervasive-use",,,browser-based,no,web-browsing,,20077,TRAFFIC,,,,15428,,2024-12-28T05:44:12.856+09:00,,2024/12/28 05:43:53,0,,Bulgaria,,,VISION-SEOUL-FW.seoulfw 1,31.13.224.202,,,,end,31.13.224.202,,39530
<14>Dec 28 05:44:12 VISION-SEOUL-FW.seoulfw 1,from-policy,,,0,,0,0,,,,unknown,tcp,,"[""_dateparsefailure""]",policy-deny,e90cbdfb-a61c-4c37-92ea-1fc8d7cd4431,,74,0,2024-12-27T20:44:12.741Z,,89,Korea Republic Of,2817,no,N/A,,,0,0,,1,0,2024/12/28 05:44:12,NonProxyTraffic,,,VISION-SEOUL-FW.seoulfw 1,2024/12/28 05:44:12,VISION-SEOUL-FW,0,1,192.168.200.252,,unknown,0,0x8000000000000000,,0,1,26728,0,7444489203827593583,1,not-applicable,,untrust,,,,023201001129,,ethernet1/2,vsys1,,0,,intrazone-default,,any,PaloLog-forward,,,untrust,0,deny,0,0.0.0.0,118.128.43.82,,,,,,2024/12/28 05:44:12,1,,,0,0,0x0,,,,unknown,no,not-applicable,,0,TRAFFIC,,,,74,,2024-12-28T05:44:12.856+09:00,,2024/12/28 05:44:07,0,,United States,,,VISION-SEOUL-FW.seoulfw 1,135.148.57.190,,,,drop,0.0.0.0,,0
<14>Dec 28 05:44:07 VISION-SEOUL-FW.seoulfw 1,from-policy,,,0,,0,0,,,,unknown,udp,,"[""_dateparsefailure""]",policy-deny,e90cbdfb-a61c-4c37-92ea-1fc8d7cd4431,,60,0,2024-12-27T20:44:07.743Z,,63588,Korea Republic Of,2817,no,N/A,,,0,0,,1,0,2024/12/28 05:44:07,NonProxyTraffic,,,VISION-SEOUL-FW.seoulfw 1,2024/12/28 05:44:07,VISION-SEOUL-FW,0,1,192.168.200.252,,unknown,0,0x8000000000000000,,0,1,38616,0,7444489203827593581,1,not-applicable,,untrust,,,,023201001129,,ethernet1/2,vsys1,,0,,intrazone-default,,any,PaloLog-forward,,,untrust,0,deny,0,0.0.0.0,118.128.43.82,,,,,,2024/12/28 05:44:07,1,,,0,0,0x0,,,,unknown,no,not-applicable,,0,TRAFFIC,,,,60,,2024-12-28T05:44:07.856+09:00,,2024/12/28 05:44:06,0,,Korea Republic Of,,,VISION-SEOUL-FW.seoulfw 1,110.45.192.90,,,,drop,0.0.0.0,,0
<14>Dec 28 05:44:07 VISION-SEOUL-FW.seoulfw 1,from-policy,,,0,,0,0,,,,internet-utility,tcp,,"[""_dateparsefailure""]",tcp-fin,8b168a38-7dd9-4435-8188-4d9dc014666e,,2254,0,2024-12-27T20:44:07.743Z,,443,Korea Republic Of,2817,no,N/A,,,295967,0,,40,0,2024/12/28 05:44:07,NonProxyTraffic,,,VISION-SEOUL-FW.seoulfw 1,2024/12/28 05:44:07,VISION-SEOUL-FW,14,1,192.168.200.252,,general-internet,0,0x8000000000000000,,13138,1,33674,0,7444489203827593582,26,web-browsing,,untrust,,ethernet1/2,,023201001129,,ethernet1/2,vsys1,,0,,Allow-Global-Protect-Portal,,license-expired,PaloLog-forward,,,untrust,1,allow,0,118.128.43.82,118.128.43.82,,,,,,2024/12/28 05:44:07,4,,,0,0,0x140201c,"used-by-malware,able-to-transfer-file,has-known-vulnerability,tunnel-other-application,pervasive-use",,,browser-based,no,web-browsing,,20077,TRAFFIC,,,,15392,,2024-12-28T05:44:07.856+09:00,,2024/12/28 05:43:51,0,,Bulgaria,,,VISION-SEOUL-FW.seoulfw 1,31.13.224.202,,,,end,31.13.224.202,,33674
<14>Dec 28 05:44:07 VISION-SEOUL-FW.seoulfw 1,from-policy,,,0,,0,0,,,,infrastructure,udp,,"[""_dateparsefailure""]",aged-out,dbd7a6c6-ca36-4398-80b3-5bab8fa733c2,,90,0,2024-12-27T20:44:07.742Z,,123,United Kingdom,2817,no,N/A,,,292391,0,,2,0,2024/12/28 05:44:07,NonProxyTraffic,,,VISION-SEOUL-FW.seoulfw 1,2024/12/28 05:44:07,VISION-SEOUL-FW,1,1,192.168.200.252,,networking,0,0x8000000000000000,,90,1,36514,0,7444489203827593574,1,ntp-base,,untrust,,ethernet1/2,,023201001129,ntp,ae1,vsys1,,0,,ALLOW-OUTBOUND,,any,PaloLog-forward,,,trust,1,allow,0,185.125.190.56,185.125.190.56,,,,,,2024/12/28 05:44:07,2,,,0,0,0x40007a,"used-by-malware,pervasive-use",,,network-protocol,no,ntp-base,,123,TRAFFIC,,,,180,,2024-12-28T05:44:07.856+09:00,,2024/12/28 05:43:32,0,,192.168.0.0-192.168.255.255,,,VISION-SEOUL-FW.seoulfw 1,192.168.199.231,,,,end,118.128.43.82,,58224
<14>Dec 28 05:44:07 VISION-SEOUL-FW.seoulfw 1,from-policy,,,0,,0,0,,,,internet-utility,tcp,,"[""_dateparsefailure""]",tcp-fin,8b168a38-7dd9-4435-8188-4d9dc014666e,,2511,0,2024-12-27T20:44:07.742Z,,443,Korea Republic Of,2817,no,N/A,,,293457,0,,42,0,2024/12/28 05:44:07,NonProxyTraffic,,,VISION-SEOUL-FW.seoulfw 1,2024/12/28 05:44:07,VISION-SEOUL-FW,14,1,192.168.200.252,,general-internet,0,0x8000000000000000,,13138,1,47182,0,7444489203827593573,28,web-browsing,,untrust,,ethernet1/2,,023201001129,,ethernet1/2,vsys1,,0,,Allow-Global-Protect-Portal,,license-expired,PaloLog-forward,,,untrust,0,allow,0,118.128.43.82,118.128.43.82,,,,,,2024/12/28 05:44:07,4,,,0,0,0x140201c,"used-by-malware,able-to-transfer-file,has-known-vulnerability,tunnel-other-application,pervasive-use",,,browser-based,no,web-browsing,,20077,TRAFFIC,,,,15649,,2024-12-28T05:44:07.856+09:00,,2024/12/28 05:43:48,0,,Bulgaria,,,VISION-SEOUL-FW.seoulfw 1,31.13.224.202,,,,end,31.13.224.202,,47182
<14>Dec 28 05:44:07 VISION-SEOUL-FW.seoulfw 1,from-policy,,,0,,0,0,,,,internet-utility,tcp,,"[""_dateparsefailure""]",tcp-fin,8b168a38-7dd9-4435-8188-4d9dc014666e,,2580,0,2024-12-27T20:44:07.742Z,,443,Korea Republic Of,2817,no,N/A,,,296136,0,,43,0,2024/12/28 05:44:07,NonProxyTraffic,,,VISION-SEOUL-FW.seoulfw 1,2024/12/28 05:44:07,VISION-SEOUL-FW,14,1,192.168.200.252,,general-internet,0,0x8000000000000000,,13138,1,53266,0,7444489203827593576,29,web-browsing,,untrust,,ethernet1/2,,023201001129,,ethernet1/2,vsys1,,0,,Allow-Global-Protect-Portal,,license-expired,PaloLog-forward,,,untrust,1,allow,0,118.128.43.82,118.128.43.82,,,,,,2024/12/28 05:44:07,4,,,0,0,0x140201c,"used-by-malware,able-to-transfer-file,has-known-vulnerability,tunnel-other-application,pervasive-use",,,browser-based,no,web-browsing,,20077,TRAFFIC,,,,15718,,2024-12-28T05:44:07.856+09:00,,2024/12/28 05:43:49,0,,Bulgaria,,,VISION-SEOUL-FW.seoulfw 1,31.13.224.202,,,,end,31.13.224.202,,53266
<14>Dec 28 05:44:07 VISION-SEOUL-FW.seoulfw 1,from-policy,,,0,,0,0,,,,internet-utility,tcp,,"[""_dateparsefailure""]",tcp-fin,8b168a38-7dd9-4435-8188-4d9dc014666e,,2813,0,2024-12-27T20:44:07.742Z,,443,Korea Republic Of,2817,no,N/A,,,294867,0,,44,0,2024/12/28 05:44:07,NonProxyTraffic,,,VISION-SEOUL-FW.seoulfw 1,2024/12/28 05:44:07,VISION-SEOUL-FW,14,1,192.168.200.252,,general-internet,0,0x8000000000000000,,13138,1,50120,0,7444489203827593575,30,web-browsing,,untrust,,ethernet1/2,,023201001129,,ethernet1/2,vsys1,,0,,Allow-Global-Protect-Portal,,license-expired,PaloLog-forward,,,untrust,1,allow,0,118.128.43.82,118.128.43.82,,,,,,2024/12/28 05:44:07,4,,,0,0,0x140201c,"used-by-malware,able-to-transfer-file,has-known-vulnerability,tunnel-other-application,pervasive-use",,,browser-based,no,web-browsing,,20077,TRAFFIC,,,,15951,,2024-12-28T05:44:07.856+09:00,,2024/12/28 05:43:48,0,,Bulgaria,,,VISION-SEOUL-FW.seoulfw 1,31.13.224.202,,,,end,31.13.224.202,,50120
<14>Dec 28 05:44:07 VISION-SEOUL-FW.seoulfw 1,from-policy,,,0,,0,0,,,,internet-utility,tcp,,"[""_dateparsefailure""]",tcp-fin,8b168a38-7dd9-4435-8188-4d9dc014666e,,2905,0,2024-12-27T20:44:07.742Z,,443,Korea Republic Of,2817,no,N/A,,,295110,0,,45,0,2024/12/28 05:44:07,NonProxyTraffic,,,VISION-SEOUL-FW.seoulfw 1,2024/12/28 05:44:07,VISION-SEOUL-FW,14,1,192.168.200.252,,general-internet,0,0x8000000000000000,,13138,1,56104,0,7444489203827593579,31,web-browsing,,untrust,,ethernet1/2,,023201001129,,ethernet1/2,vsys1,,0,,Allow-Global-Protect-Portal,,license-expired,PaloLog-forward,,,untrust,1,allow,0,118.128.43.82,118.128.43.82,,,,,,2024/12/28 05:44:07,4,,,0,0,0x140201c,"used-by-malware,able-to-transfer-file,has-known-vulnerability,tunnel-other-application,pervasive-use",,,browser-based,no,web-browsing,,20077,TRAFFIC,,,,16043,,2024-12-28T05:44:07.856+09:00,,2024/12/28 05:43:50,0,,Bulgaria,,,VISION-SEOUL-FW.seoulfw 1,31.13.224.202,,,,end,31.13.224.202,,56104
<14>Dec 28 05:44:07 VISION-SEOUL-FW.seoulfw 1,from-policy,,,0,,0,0,,,,internet-utility,tcp,,"[""_dateparsefailure""]",tcp-fin,8b168a38-7dd9-4435-8188-4d9dc014666e,,2516,0,2024-12-27T20:44:07.742Z,,443,Korea Republic Of,2817,no,N/A,,,296263,0,,43,0,2024/12/28 05:44:07,NonProxyTraffic,,,VISION-SEOUL-FW.seoulfw 1,2024/12/28 05:44:07,VISION-SEOUL-FW,14,1,192.168.200.252,,general-internet,0,0x8000000000000000,,13138,1,59104,0,7444489203827593577,29,web-browsing,,untrust,,ethernet1/2,,023201001129,,ethernet1/2,vsys1,,0,,Allow-Global-Protect-Portal,,license-expired,PaloLog-forward,,,untrust,1,allow,0,118.128.43.82,118.128.43.82,,,,,,2024/12/28 05:44:07,4,,,0,0,0x140201c,"used-by-malware,able-to-transfer-file,has-known-vulnerability,tunnel-other-application,pervasive-use",,,browser-based,no,web-browsing,,20077,TRAFFIC,,,,15654,,2024-12-28T05:44:07.856+09:00,,2024/12/28 05:43:50,0,,Bulgaria,,,VISION-SEOUL-FW.seoulfw 1,31.13.224.202,,,,end,31.13.224.202,,59104
<14>Dec 28 05:44:07 VISION-SEOUL-FW.seoulfw 1,from-policy,,,0,,0,0,,,,unknown,udp,,"[""_dateparsefailure""]",policy-deny,e90cbdfb-a61c-4c37-92ea-1fc8d7cd4431,,60,0,2024-12-27T20:44:07.742Z,,7062,Korea Republic Of,2817,no,N/A,,,0,0,,1,0,2024/12/28 05:44:07,NonProxyTraffic,,,VISION-SEOUL-FW.seoulfw 1,2024/12/28 05:44:07,VISION-SEOUL-FW,0,1,192.168.200.252,,unknown,0,0x8000000000000000,,0,1,38059,0,7444489203827593580,1,not-applicable,,untrust,,,,023201001129,,ethernet1/2,vsys1,,0,,intrazone-default,,any,PaloLog-forward,,,untrust,0,deny,0,0.0.0.0,118.128.43.82,,,,,,2024/12/28 05:44:07,1,,,0,0,0x0,,,,unknown,no,not-applicable,,0,TRAFFIC,,,,60,,2024-12-28T05:44:07.856+09:00,,2024/12/28 05:44:06,0,,Korea Republic Of,,,VISION-SEOUL-FW.seoulfw 1,110.45.188.132,,,,drop,0.0.0.0,,0
<14>Dec 28 05:44:07 VISION-SEOUL-FW.seoulfw 1,from-policy,,,0,,0,0,,,,internet-utility,icmp,,"[""_dateparsefailure""]",aged-out,dbd7a6c6-ca36-4398-80b3-5bab8fa733c2,,294,0,2024-12-27T20:44:07.741Z,,0,192.168.0.0-192.168.255.255,2817,no,N/A,,,295111,0,,6,0,2024/12/28 05:44:07,NonProxyTraffic,,,VISION-SEOUL-FW.seoulfw 1,2024/12/28 05:44:07,VISION-SEOUL-FW,3,1,192.168.200.252,,general-internet,0,0x8000000000000000,,294,3,27159,0,7444489203827593571,3,untunneled,,trust,,ae1,,023201001129,,ae1,vsys1,,0,,ALLOW-OUTBOUND,,any,PaloLog-forward,,,trust,0,allow,0,0.0.0.0,192.168.200.1,,,,,,2024/12/28 05:44:07,2,,,0,0,0x100019,"has-known-vulnerability,tunnel-other-application,pervasive-use",,,network-protocol,no,ping,,0,TRAFFIC,,,,588,,2024-12-28T05:44:07.855+09:00,,2024/12/28 05:43:51,0,,192.168.0.0-192.168.255.255,,,VISION-SEOUL-FW.seoulfw 1,192.168.200.254,,,,end,0.0.0.0,,0
<14>Dec 28 05:44:07 VISION-SEOUL-FW.seoulfw 1,from-policy,,,0,,0,0,,,,internet-utility,tcp,,"[""_dateparsefailure""]",tcp-fin,8b168a38-7dd9-4435-8188-4d9dc014666e,,2670,0,2024-12-27T20:44:07.741Z,,443,Korea Republic Of,2817,no,N/A,,,295971,0,,44,0,2024/12/28 05:44:07,NonProxyTraffic,,,VISION-SEOUL-FW.seoulfw 1,2024/12/28 05:44:07,VISION-SEOUL-FW,14,1,192.168.200.252,,general-internet,0,0x8000000000000000,,13138,1,44196,0,7444489203827593572,30,web-browsing,,untrust,,ethernet1/2,,023201001129,,ethernet1/2,vsys1,,0,,Allow-Global-Protect-Portal,,license-expired,PaloLog-forward,,,untrust,1,allow,0,118.128.43.82,118.128.43.82,,,,,,2024/12/28 05:44:07,4,,,0,0,0x140201c,"used-by-malware,able-to-transfer-file,has-known-vulnerability,tunnel-other-application,pervasive-use",,,browser-based,no,web-browsing,,20077,TRAFFIC,,,,15808,,2024-12-28T05:44:07.856+09:00,,2024/12/28 05:43:47,0,,Bulgaria,,,VISION-SEOUL-FW.seoulfw 1,31.13.224.202,,,,end,31.13.224.202,,44196
<14>Dec 28 05:44:02 VISION-SEOUL-FW.seoulfw 1,from-policy,,,0,,0,0,,,,encrypted-tunnel,tcp,,"[""_dateparsefailure""]",tcp-fin,dbd7a6c6-ca36-4398-80b3-5bab8fa733c2,,1229,0,2024-12-27T20:44:02.743Z,,443,European Union,2817,no,N/A,,,294969,0,,23,0,2024/12/28 05:44:02,NonProxyTraffic,,,VISION-SEOUL-FW.seoulfw 1,2024/12/28 05:44:02,VISION-SEOUL-FW,11,1,192.168.200.252,,networking,0,0x8000000000000000,,7103,1,52736,0,7444489203827593566,12,ssl,,untrust,,ethernet1/2,,023201001129,,ae1,vsys1,,0,,ALLOW-OUTBOUND,,license-expired,PaloLog-forward,,,trust,109,allow,0,20.50.73.13,20.50.73.13,,,,,,2024/12/28 05:44:02,4,,,0,0,0x40047a,"used-by-malware,able-to-transfer-file,has-known-vulnerability,tunnel-other-application,pervasive-use",,,browser-based,no,ssl,,443,TRAFFIC,,,,8332,,2024-12-28T05:44:02.855+09:00,,2024/12/28 05:41:57,0,,192.168.0.0-192.168.255.255,,,VISION-SEOUL-FW.seoulfw 1,192.168.199.31,,,,end,118.128.43.82,,37130
<14>Dec 28 05:44:02 VISION-SEOUL-FW.seoulfw 1,from-policy,,,0,,0,0,,,,internet-utility,tcp,,"[""_dateparsefailure""]",tcp-fin,8b168a38-7dd9-4435-8188-4d9dc014666e,,2795,0,2024-12-27T20:44:02.743Z,,443,Korea Republic Of,2817,no,N/A,,,293633,0,,44,0,2024/12/28 05:44:02,NonProxyTraffic,,,VISION-SEOUL-FW.seoulfw 1,2024/12/28 05:44:02,VISION-SEOUL-FW,14,1,192.168.200.252,,general-internet,0,0x8000000000000000,,13138,1,41302,0,7444489203827593568,30,web-browsing,,untrust,,ethernet1/2,,023201001129,,ethernet1/2,vsys1,,0,,Allow-Global-Protect-Portal,,license-expired,PaloLog-forward,,,untrust,1,allow,0,118.128.43.82,118.128.43.82,,,,,,2024/12/28 05:44:02,4,,,0,0,0x140201c,"used-by-malware,able-to-transfer-file,has-known-vulnerability,tunnel-other-application,pervasive-use",,,browser-based,no,web-browsing,,20077,TRAFFIC,,,,15933,,2024-12-28T05:44:02.855+09:00,,2024/12/28 05:43:46,0,,Bulgaria,,,VISION-SEOUL-FW.seoulfw 1,31.13.224.202,,,,end,31.13.224.202,,41302
<14>Dec 28 05:44:02 VISION-SEOUL-FW.seoulfw 1,from-policy,,,0,,0,0,,,,unknown,udp,,"[""_dateparsefailure""]",aged-out,dbd7a6c6-ca36-4398-80b3-5bab8fa733c2,,1564,0,2024-12-27T20:44:02.743Z,,5060,Korea Republic Of,2817,no,N/A,,,294316,0,,5,0,2024/12/28 05:44:02,NonProxyTraffic,,,VISION-SEOUL-FW.seoulfw 1,2024/12/28 05:44:02,VISION-SEOUL-FW,3,1,192.168.200.252,,unknown,0,0x8000000000000000,,1437,1,5060,0,7444489203827593569,2,insufficient-data,,untrust,,ethernet1/2,,023201001129,,ae1,vsys1,,0,,ALLOW-OUTBOUND,,any,PaloLog-forward,,,trust,0,allow,0,210.207.255.47,210.207.255.47,,,,,,2024/12/28 05:44:02,1,,,0,0,0x400019,,,,unknown,no,insufficient-data,,5060,TRAFFIC,,,,3001,,2024-12-28T05:44:02.855+09:00,,2024/12/28 05:43:32,0,,192.168.0.0-192.168.255.255,,,VISION-SEOUL-FW.seoulfw 1,192.168.200.209,,,,end,118.128.43.82,,27650
<14>Dec 28 05:44:02 VISION-SEOUL-FW.seoulfw 1,from-policy,,,0,,0,0,,,,unknown,udp,,"[""_dateparsefailure""]",policy-deny,e90cbdfb-a61c-4c37-92ea-1fc8d7cd4431,,60,0,2024-12-27T20:44:02.743Z,,7062,Korea Republic Of,2817,no,N/A,,,0,0,,1,0,2024/12/28 05:44:02,NonProxyTraffic,,,VISION-SEOUL-FW.seoulfw 1,2024/12/28 05:44:02,VISION-SEOUL-FW,0,1,192.168.200.252,,unknown,0,0x8000000000000000,,0,1,38059,0,7444489203827593567,1,not-applicable,,untrust,,,,023201001129,,ethernet1/2,vsys1,,0,,intrazone-default,,any,PaloLog-forward,,,untrust,0,deny,0,0.0.0.0,118.128.43.82,,,,,,2024/12/28 05:44:02,1,,,0,0,0x0,,,,unknown,no,not-applicable,,0,TRAFFIC,,,,60,,2024-12-28T05:44:02.855+09:00,,2024/12/28 05:44:01,0,,Korea Republic Of,,,VISION-SEOUL-FW.seoulfw 1,110.45.188.132,,,,drop,0.0.0.0,,0
<14>Dec 28 05:44:02 VISION-SEOUL-FW.seoulfw 1,from-policy,,,0,,0,0,,,,internet-utility,tcp,,"[""_dateparsefailure""]",tcp-fin,8b168a38-7dd9-4435-8188-4d9dc014666e,,2758,0,2024-12-27T20:44:02.742Z,,443,Korea Republic Of,2817,no,N/A,,,295812,0,,44,0,2024/12/28 05:44:02,NonProxyTraffic,,,VISION-SEOUL-FW.seoulfw 1,2024/12/28 05:44:02,VISION-SEOUL-FW,14,1,192.168.200.252,,general-internet,0,0x8000000000000000,,13138,1,38386,0,7444489203827593562,30,web-browsing,,untrust,,ethernet1/2,,023201001129,,ethernet1/2,vsys1,,0,,Allow-Global-Protect-Portal,,license-expired,PaloLog-forward,,,untrust,1,allow,0,118.128.43.82,118.128.43.82,,,,,,2024/12/28 05:44:02,4,,,0,0,0x140201c,"used-by-malware,able-to-transfer-file,has-known-vulnerability,tunnel-other-application,pervasive-use",,,browser-based,no,web-browsing,,20077,TRAFFIC,,,,15896,,2024-12-28T05:44:02.855+09:00,,2024/12/28 05:43:45,0,,Bulgaria,,,VISION-SEOUL-FW.seoulfw 1,31.13.224.202,,,,end,31.13.224.202,,38386
<14>Dec 28 05:44:02 VISION-SEOUL-FW.seoulfw 1,from-policy,,,0,,0,0,,,,internet-utility,tcp,,"[""_dateparsefailure""]",tcp-fin,8b168a38-7dd9-4435-8188-4d9dc014666e,,2550,0,2024-12-27T20:44:02.742Z,,443,Korea Republic Of,2817,no,N/A,,,275264,0,,43,0,2024/12/28 05:44:02,NonProxyTraffic,,,VISION-SEOUL-FW.seoulfw 1,2024/12/28 05:44:02,VISION-SEOUL-FW,14,1,192.168.200.252,,general-internet,0,0x8000000000000000,,13138,1,35324,0,7444489203827593563,29,web-browsing,,untrust,,ethernet1/2,,023201001129,,ethernet1/2,vsys1,,0,,Allow-Global-Protect-Portal,,license-expired,PaloLog-forward,,,untrust,1,allow,0,118.128.43.82,118.128.43.82,,,,,,2024/12/28 05:44:02,4,,,0,0,0x140201c,"used-by-malware,able-to-transfer-file,has-known-vulnerability,tunnel-other-application,pervasive-use",,,browser-based,no,web-browsing,,20077,TRAFFIC,,,,15688,,2024-12-28T05:44:02.855+09:00,,2024/12/28 05:43:45,0,,Bulgaria,,,VISION-SEOUL-FW.seoulfw 1,31.13.224.202,,,,end,31.13.224.202,,35324
<14>Dec 28 05:44:02 VISION-SEOUL-FW.seoulfw 1,from-policy,,,0,,0,0,,,,encrypted-tunnel,tcp,,"[""_dateparsefailure""]",tcp-fin,dbd7a6c6-ca36-4398-80b3-5bab8fa733c2,,1229,0,2024-12-27T20:44:02.742Z,,443,European Union,2817,no,N/A,,,292718,0,,23,0,2024/12/28 05:44:02,NonProxyTraffic,,,VISION-SEOUL-FW.seoulfw 1,2024/12/28 05:44:02,VISION-SEOUL-FW,11,1,192.168.200.252,,networking,0,0x8000000000000000,,7103,1,49951,0,7444489203827593565,12,ssl,,untrust,,ethernet1/2,,023201001129,,ae1,vsys1,,0,,ALLOW-OUTBOUND,,license-expired,PaloLog-forward,,,trust,105,allow,0,20.50.73.13,20.50.73.13,,,,,,2024/12/28 05:44:02,4,,,0,0,0x40047a,"used-by-malware,able-to-transfer-file,has-known-vulnerability,tunnel-other-application,pervasive-use",,,browser-based,no,ssl,,443,TRAFFIC,,,,8332,,2024-12-28T05:44:02.855+09:00,,2024/12/28 05:42:01,0,,192.168.0.0-192.168.255.255,,,VISION-SEOUL-FW.seoulfw 1,192.168.199.35,,,,end,118.128.43.82,,26927
<14>Dec 28 05:44:02 VISION-SEOUL-FW.seoulfw 1,from-policy,,,0,,0,0,,,,internet-utility,tcp,,"[""_dateparsefailure""]",tcp-fin,8b168a38-7dd9-4435-8188-4d9dc014666e,,2732,0,2024-12-27T20:44:02.741Z,,443,Korea Republic Of,2817,no,N/A,,,295629,0,,44,0,2024/12/28 05:44:02,NonProxyTraffic,,,VISION-SEOUL-FW.seoulfw 1,2024/12/28 05:44:02,VISION-SEOUL-FW,14,1,192.168.200.252,,general-internet,0,0x8000000000000000,,13138,1,57884,0,7444489203827593559,30,web-browsing,,untrust,,ethernet1/2,,023201001129,,ethernet1/2,vsys1,,0,,Allow-Global-Protect-Portal,,license-expired,PaloLog-forward,,,untrust,1,allow,0,118.128.43.82,118.128.43.82,,,,,,2024/12/28 05:44:02,4,,,0,0,0x140201c,"used-by-malware,able-to-transfer-file,has-known-vulnerability,tunnel-other-application,pervasive-use",,,browser-based,no,web-browsing,,20077,TRAFFIC,,,,15870,,2024-12-28T05:44:02.855+09:00,,2024/12/28 05:43:43,0,,Bulgaria,,,VISION-SEOUL-FW.seoulfw 1,31.13.224.202,,,,end,31.13.224.202,,57884
<14>Dec 28 05:44:02 VISION-SEOUL-FW.seoulfw 1,from-policy,,,0,,0,0,,,,encrypted-tunnel,tcp,,"[""_dateparsefailure""]",tcp-rst-from-server,dbd7a6c6-ca36-4398-80b3-5bab8fa733c2,,6115,0,2024-12-27T20:44:02.741Z,,443,United Kingdom,2817,no,N/A,,,296381,0,,40,0,2024/12/28 05:44:02,NonProxyTraffic,,,VISION-SEOUL-FW.seoulfw 1,2024/12/28 05:44:02,VISION-SEOUL-FW,24,1,192.168.200.252,,networking,0,0x8000000000000000,,22517,1,55146,0,7444489203827593560,16,ssl,,untrust,,ethernet1/2,,023201001129,,ae2,vsys1,,0,,ALLOW-OUTBOUND,,license-expired,PaloLog-forward,,,SERVER,6,allow,0,185.125.188.58,185.125.188.58,,,,,,2024/12/28 05:44:02,4,,,0,0,0x40047a,"used-by-malware,able-to-transfer-file,has-known-vulnerability,tunnel-other-application,pervasive-use",,,browser-based,no,ssl,,443,TRAFFIC,,,,28632,,2024-12-28T05:44:02.855+09:00,,2024/12/28 05:43:39,0,,192.168.0.0-192.168.255.255,,,VISION-SEOUL-FW.seoulfw 1,192.168.100.13,,,,end,118.128.43.82,,62936
<14>Dec 28 05:44:02 VISION-SEOUL-FW.seoulfw 1,from-policy,,,0,,0,0,,,,internet-utility,tcp,,"[""_dateparsefailure""]",tcp-fin,8b168a38-7dd9-4435-8188-4d9dc014666e,,2849,0,2024-12-27T20:44:02.741Z,,443,Korea Republic Of,2817,no,N/A,,,293682,0,,45,0,2024/12/28 05:44:02,NonProxyTraffic,,,VISION-SEOUL-FW.seoulfw 1,2024/12/28 05:44:02,VISION-SEOUL-FW,14,1,192.168.200.252,,general-internet,0,0x8000000000000000,,13138,1,60674,0,7444489203827593561,31,web-browsing,,untrust,,ethernet1/2,,023201001129,,ethernet1/2,vsys1,,0,,Allow-Global-Protect-Portal,,license-expired,PaloLog-forward,,,untrust,1,allow,0,118.128.43.82,118.128.43.82,,,,,,2024/12/28 05:44:02,4,,,0,0,0x140201c,"used-by-malware,able-to-transfer-file,has-known-vulnerability,tunnel-other-application,pervasive-use",,,browser-based,no,web-browsing,,20077,TRAFFIC,,,,15987,,2024-12-28T05:44:02.855+09:00,,2024/12/28 05:43:44,0,,Bulgaria,,,VISION-SEOUL-FW.seoulfw 1,31.13.224.202,,,,end,31.13.224.202,,60674
<14>Dec 28 05:44:02 VISION-SEOUL-FW.seoulfw 1,from-policy,,,0,,0,0,,,,unknown,tcp,,"[""_dateparsefailure""]",policy-deny,e90cbdfb-a61c-4c37-92ea-1fc8d7cd4431,,60,0,2024-12-27T20:44:02.740Z,,4200,Korea Republic Of,2817,no,N/A,,,0,0,,1,0,2024/12/28 05:44:02,NonProxyTraffic,,,VISION-SEOUL-FW.seoulfw 1,2024/12/28 05:44:02,VISION-SEOUL-FW,0,1,192.168.200.252,,unknown,0,0x8000000000000000,,0,1,52219,0,7444489203827593556,1,not-applicable,,untrust,,,,023201001129,,ethernet1/2,vsys1,,0,,intrazone-default,,any,PaloLog-forward,,,untrust,0,deny,0,0.0.0.0,118.128.43.82,,,,,,2024/12/28 05:44:02,1,,,0,0,0x0,,,,unknown,no,not-applicable,,0,TRAFFIC,,,,60,,2024-12-28T05:44:02.855+09:00,,2024/12/28 05:43:57,0,,Korea Republic Of,,,VISION-SEOUL-FW.seoulfw 1,121.154.133.174,,,,drop,0.0.0.0,,0
<14>Dec 28 05:44:02 VISION-SEOUL-FW.seoulfw 1,from-policy,,,0,,0,0,,,,email,tcp,,"[""_dateparsefailure""]",tcp-rst-from-server,dbd7a6c6-ca36-4398-80b3-5bab8fa733c2,,1751,0,2024-12-27T20:44:02.740Z,,993,Korea Republic Of,2817,yes,N/A,,,295041,0,,30,0,2024/12/28 05:44:02,NonProxyTraffic,,,VISION-SEOUL-FW.seoulfw 1,2024/12/28 05:44:02,VISION-SEOUL-FW,15,1,192.168.200.252,,saas,0,0x8000000000000000,,6338,1,46314,0,7444489203827593558,15,naver-mail,,untrust,,ethernet1/2,,023201001129,,ae2,vsys1,,0,,ALLOW-OUTBOUND,,license-expired,PaloLog-forward,,,SERVER,0,allow,0,125.209.238.153,125.209.238.153,,,,,,2024/12/28 05:44:02,3,,,0,0,0x40047a,"able-to-transfer-file,has-known-vulnerability,pervasive-use,is-saas,no-certifications",,,browser-based,no,naver-mail,,993,TRAFFIC,,,,8089,,2024-12-28T05:44:02.855+09:00,,2024/12/28 05:43:43,0,,192.168.0.0-192.168.255.255,,,VISION-SEOUL-FW.seoulfw 1,192.168.100.170,,,,end,118.128.43.82,,53053
<14>Dec 28 05:44:02 VISION-SEOUL-FW.seoulfw 1,from-policy,,,0,,0,0,,,,internet-utility,tcp,,"[""_dateparsefailure""]",tcp-fin,8b168a38-7dd9-4435-8188-4d9dc014666e,,2755,0,2024-12-27T20:44:02.740Z,,443,Korea Republic Of,2817,no,N/A,,,295208,0,,44,0,2024/12/28 05:44:02,NonProxyTraffic,,,VISION-SEOUL-FW.seoulfw 1,2024/12/28 05:44:02,VISION-SEOUL-FW,14,1,192.168.200.252,,general-internet,0,0x8000000000000000,,13138,1,55250,0,7444489203827593557,30,web-browsing,,untrust,,ethernet1/2,,023201001129,,ethernet1/2,vsys1,,0,,Allow-Global-Protect-Portal,,license-expired,PaloLog-forward,,,untrust,1,allow,0,118.128.43.82,118.128.43.82,,,,,,2024/12/28 05:44:02,4,,,0,0,0x140201c,"used-by-malware,able-to-transfer-file,has-known-vulnerability,tunnel-other-application,pervasive-use",,,browser-based,no,web-browsing,,20077,TRAFFIC,,,,15893,,2024-12-28T05:44:02.855+09:00,,2024/12/28 05:43:42,0,,Bulgaria,,,VISION-SEOUL-FW.seoulfw 1,31.13.224.202,,,,end,31.13.224.202,,55250
<14>Dec 28 05:43:57 VISION-SEOUL-FW.seoulfw 1,from-policy,,,0,,0,0,,,,unknown,udp,,"[""_dateparsefailure""]",policy-deny,e90cbdfb-a61c-4c37-92ea-1fc8d7cd4431,,60,0,2024-12-27T20:43:57.742Z,,63588,Korea Republic Of,2817,no,N/A,,,0,0,,1,0,2024/12/28 05:43:57,NonProxyTraffic,,,VISION-SEOUL-FW.seoulfw 1,2024/12/28 05:43:57,VISION-SEOUL-FW,0,1,192.168.200.252,,unknown,0,0x8000000000000000,,0,1,38616,0,7444489203827593552,1,not-applicable,,untrust,,,,023201001129,,ethernet1/2,vsys1,,0,,intrazone-default,,any,PaloLog-forward,,,untrust,0,deny,0,0.0.0.0,118.128.43.82,,,,,,2024/12/28 05:43:57,1,,,0,0,0x0,,,,unknown,no,not-applicable,,0,TRAFFIC,,,,60,,2024-12-28T05:43:57.855+09:00,,2024/12/28 05:43:56,0,,Korea Republic Of,,,VISION-SEOUL-FW.seoulfw 1,110.45.192.90,,,,drop,0.0.0.0,,0
<14>Dec 28 05:43:57 VISION-SEOUL-FW.seoulfw 1,from-policy,,,0,,0,0,,,,internet-utility,tcp,,"[""_dateparsefailure""]",tcp-fin,8b168a38-7dd9-4435-8188-4d9dc014666e,,2733,0,2024-12-27T20:43:57.742Z,,443,Korea Republic Of,2817,no,N/A,,,295776,0,,44,0,2024/12/28 05:43:57,NonProxyTraffic,,,VISION-SEOUL-FW.seoulfw 1,2024/12/28 05:43:57,VISION-SEOUL-FW,14,1,192.168.200.252,,general-internet,0,0x8000000000000000,,13138,1,52640,0,7444489203827593553,30,web-browsing,,untrust,,ethernet1/2,,023201001129,,ethernet1/2,vsys1,,0,,Allow-Global-Protect-Portal,,license-expired,PaloLog-forward,,,untrust,1,allow,0,118.128.43.82,118.128.43.82,,,,,,2024/12/28 05:43:57,4,,,0,0,0x140201c,"used-by-malware,able-to-transfer-file,has-known-vulnerability,tunnel-other-application,pervasive-use",,,browser-based,no,web-browsing,,20077,TRAFFIC,,,,15871,,2024-12-28T05:43:57.855+09:00,,2024/12/28 05:43:41,0,,Bulgaria,,,VISION-SEOUL-FW.seoulfw 1,31.13.224.202,,,,end,31.13.224.202,,52640
<14>Dec 28 05:43:57 VISION-SEOUL-FW.seoulfw 1,from-policy,,,0,,0,0,,,,internet-utility,tcp,,"[""_dateparsefailure""]",tcp-fin,8b168a38-7dd9-4435-8188-4d9dc014666e,,2812,0,2024-12-27T20:43:57.742Z,,443,Korea Republic Of,2817,no,N/A,,,296065,0,,44,0,2024/12/28 05:43:57,NonProxyTraffic,,,VISION-SEOUL-FW.seoulfw 1,2024/12/28 05:43:57,VISION-SEOUL-FW,14,1,192.168.200.252,,general-internet,0,0x8000000000000000,,13138,1,49606,0,7444489203827593555,30,web-browsing,,untrust,,ethernet1/2,,023201001129,,ethernet1/2,vsys1,,0,,Allow-Global-Protect-Portal,,license-expired,PaloLog-forward,,,untrust,1,allow,0,118.128.43.82,118.128.43.82,,,,,,2024/12/28 05:43:57,4,,,0,0,0x140201c,"used-by-malware,able-to-transfer-file,has-known-vulnerability,tunnel-other-application,pervasive-use",,,browser-based,no,web-browsing,,20077,TRAFFIC,,,,15950,,2024-12-28T05:43:57.855+09:00,,2024/12/28 05:43:41,0,,Bulgaria,,,VISION-SEOUL-FW.seoulfw 1,31.13.224.202,,,,end,31.13.224.202,,49606
<14>Dec 28 05:43:57 VISION-SEOUL-FW.seoulfw 1,from-policy,,,0,,0,0,,,,internet-utility,tcp,,"[""_dateparsefailure""]",tcp-fin,8b168a38-7dd9-4435-8188-4d9dc014666e,,2508,0,2024-12-27T20:43:57.741Z,,443,Korea Republic Of,2817,no,N/A,,,296160,0,,42,0,2024/12/28 05:43:57,NonProxyTraffic,,,VISION-SEOUL-FW.seoulfw 1,2024/12/28 05:43:57,VISION-SEOUL-FW,14,1,192.168.200.252,,general-internet,0,0x8000000000000000,,13138,1,38188,0,7444489203827593546,28,web-browsing,,untrust,,ethernet1/2,,023201001129,,ethernet1/2,vsys1,,0,,Allow-Global-Protect-Portal,,license-expired,PaloLog-forward,,,untrust,1,allow,0,118.128.43.82,118.128.43.82,,,,,,2024/12/28 05:43:57,4,,,0,0,0x140201c,"used-by-malware,able-to-transfer-file,has-known-vulnerability,tunnel-other-application,pervasive-use",,,browser-based,no,web-browsing,,20077,TRAFFIC,,,,15646,,2024-12-28T05:43:57.855+09:00,,2024/12/28 05:43:38,0,,Bulgaria,,,VISION-SEOUL-FW.seoulfw 1,31.13.224.202,,,,end,31.13.224.202,,38188
<14>Dec 28 05:43:57 VISION-SEOUL-FW.seoulfw 1,from-policy,,,0,,0,0,,,,internet-utility,tcp,,"[""_dateparsefailure""]",tcp-fin,8b168a38-7dd9-4435-8188-4d9dc014666e,,2546,0,2024-12-27T20:43:57.741Z,,443,Korea Republic Of,2817,no,N/A,,,295150,0,,43,0,2024/12/28 05:43:57,NonProxyTraffic,,,VISION-SEOUL-FW.seoulfw 1,2024/12/28 05:43:57,VISION-SEOUL-FW,14,1,192.168.200.252,,general-internet,0,0x8000000000000000,,13138,1,44020,0,7444489203827593547,29,web-browsing,,untrust,,ethernet1/2,,023201001129,,ethernet1/2,vsys1,,0,,Allow-Global-Protect-Portal,,license-expired,PaloLog-forward,,,untrust,1,allow,0,118.128.43.82,118.128.43.82,,,,,,2024/12/28 05:43:57,4,,,0,0,0x140201c,"used-by-malware,able-to-transfer-file,has-known-vulnerability,tunnel-other-application,pervasive-use",,,browser-based,no,web-browsing,,20077,TRAFFIC,,,,15684,,2024-12-28T05:43:57.855+09:00,,2024/12/28 05:43:39,0,,Bulgaria,,,VISION-SEOUL-FW.seoulfw 1,31.13.224.202,,,,end,31.13.224.202,,44020
<14>Dec 28 05:43:57 VISION-SEOUL-FW.seoulfw 1,from-policy,,,0,,0,0,,,,unknown,udp,,"[""_dateparsefailure""]",policy-deny,e90cbdfb-a61c-4c37-92ea-1fc8d7cd4431,,60,0,2024-12-27T20:43:57.741Z,,7062,Korea Republic Of,2817,no,N/A,,,0,0,,1,0,2024/12/28 05:43:57,NonProxyTraffic,,,VISION-SEOUL-FW.seoulfw 1,2024/12/28 05:43:57,VISION-SEOUL-FW,0,1,192.168.200.252,,unknown,0,0x8000000000000000,,0,1,38059,0,7444489203827593548,1,not-applicable,,untrust,,,,023201001129,,ethernet1/2,vsys1,,0,,intrazone-default,,any,PaloLog-forward,,,untrust,0,deny,0,0.0.0.0,118.128.43.82,,,,,,2024/12/28 05:43:57,1,,,0,0,0x0,,,,unknown,no,not-applicable,,0,TRAFFIC,,,,60,,2024-12-28T05:43:57.855+09:00,,2024/12/28 05:43:56,0,,Korea Republic Of,,,VISION-SEOUL-FW.seoulfw 1,110.45.188.132,,,,drop,0.0.0.0,,0
<14>Dec 28 05:43:57 VISION-SEOUL-FW.seoulfw 1,from-policy,,,0,,0,0,,,,internet-utility,tcp,,"[""_dateparsefailure""]",tcp-fin,8b168a38-7dd9-4435-8188-4d9dc014666e,,2317,0,2024-12-27T20:43:57.741Z,,443,Korea Republic Of,2817,no,N/A,,,296279,0,,41,0,2024/12/28 05:43:57,NonProxyTraffic,,,VISION-SEOUL-FW.seoulfw 1,2024/12/28 05:43:57,VISION-SEOUL-FW,14,1,192.168.200.252,,general-internet,0,0x8000000000000000,,13138,1,46890,0,7444489203827593550,27,web-browsing,,untrust,,ethernet1/2,,023201001129,,ethernet1/2,vsys1,,0,,Allow-Global-Protect-Portal,,license-expired,PaloLog-forward,,,untrust,1,allow,0,118.128.43.82,118.128.43.82,,,,,,2024/12/28 05:43:57,4,,,0,0,0x140201c,"used-by-malware,able-to-transfer-file,has-known-vulnerability,tunnel-other-application,pervasive-use",,,browser-based,no,web-browsing,,20077,TRAFFIC,,,,15455,,2024-12-28T05:43:57.855+09:00,,2024/12/28 05:43:40,0,,Bulgaria,,,VISION-SEOUL-FW.seoulfw 1,31.13.224.202,,,,end,31.13.224.202,,46890
<14>Dec 28 05:43:57 VISION-SEOUL-FW.seoulfw 1,from-policy,,,0,,0,0,,,,infrastructure,udp,,"[""_dateparsefailure""]",aged-out,cbf56f07-16ed-4bae-863c-0df8b75794bb,,100,0,2024-12-27T20:43:57.741Z,,53,192.168.0.0-192.168.255.255,2817,no,N/A,,,295027,0,,2,0,2024/12/28 05:43:57,NonProxyTraffic,,,VISION-SEOUL-FW.seoulfw 1,2024/12/28 05:43:57,VISION-SEOUL-FW,1,1,192.168.200.252,,networking,0,0x8000000000000000,,182,1,57932,0,7444489203827593549,1,dns-base,,SERVER,,ae2,,023201001129,dns,tunnel.1,vsys1,,0,,Allow-IPSEC,,any,PaloLog-forward,,,IPSecVPN,0,allow,0,0.0.0.0,192.168.100.103,,,,,,2024/12/28 05:43:57,3,,,0,0,0x19,"used-by-malware,has-known-vulnerability,pervasive-use",,,network-protocol,no,dns-base,,0,TRAFFIC,,,,282,,2024-12-28T05:43:57.855+09:00,,2024/12/28 05:43:26,0,,192.168.0.0-192.168.255.255,,,VISION-SEOUL-FW.seoulfw 1,192.168.1.253,,,,end,0.0.0.0,,0
<14>Dec 28 05:43:57 VISION-SEOUL-FW.seoulfw 1,from-policy,,,0,,0,0,,,,infrastructure,udp,,"[""_dateparsefailure""]",aged-out,cbf56f07-16ed-4bae-863c-0df8b75794bb,,99,0,2024-12-27T20:43:57.741Z,,53,192.168.0.0-192.168.255.255,2817,no,N/A,,,294950,0,,2,0,2024/12/28 05:43:57,NonProxyTraffic,,,VISION-SEOUL-FW.seoulfw 1,2024/12/28 05:43:57,VISION-SEOUL-FW,1,1,192.168.200.252,,networking,0,0x8000000000000000,,146,1,47612,0,7444489203827593551,1,dns-base,,SERVER,,ae2,,023201001129,dns,tunnel.1,vsys1,,0,,Allow-IPSEC,,any,PaloLog-forward,,,IPSecVPN,0,allow,0,0.0.0.0,192.168.100.103,,,,,,2024/12/28 05:43:57,3,,,0,0,0x19,"used-by-malware,has-known-vulnerability,pervasive-use",,,network-protocol,no,dns-base,,0,TRAFFIC,,,,245,,2024-12-28T05:43:57.855+09:00,,2024/12/28 05:43:26,0,,192.168.0.0-192.168.255.255,,,VISION-SEOUL-FW.seoulfw 1,192.168.1.253,,,,end,0.0.0.0,,0
<14>Dec 28 05:43:57 VISION-SEOUL-FW.seoulfw 1,from-policy,,,0,,0,0,,,,internet-utility,tcp,,"[""_dateparsefailure""]",tcp-fin,8b168a38-7dd9-4435-8188-4d9dc014666e,,2529,0,2024-12-27T20:43:57.740Z,,443,Korea Republic Of,2817,no,N/A,,,294986,0,,41,0,2024/12/28 05:43:57,NonProxyTraffic,,,VISION-SEOUL-FW.seoulfw 1,2024/12/28 05:43:57,VISION-SEOUL-FW,14,1,192.168.200.252,,general-internet,0,0x8000000000000000,,13138,1,35186,0,7444489203827593542,27,web-browsing,,untrust,,ethernet1/2,,023201001129,,ethernet1/2,vsys1,,0,,Allow-Global-Protect-Portal,,license-expired,PaloLog-forward,,,untrust,1,allow,0,118.128.43.82,118.128.43.82,,,,,,2024/12/28 05:43:57,4,,,0,0,0x140201c,"used-by-malware,able-to-transfer-file,has-known-vulnerability,tunnel-other-application,pervasive-use",,,browser-based,no,web-browsing,,20077,TRAFFIC,,,,15667,,2024-12-28T05:43:57.855+09:00,,2024/12/28 05:43:37,0,,Bulgaria,,,VISION-SEOUL-FW.seoulfw 1,31.13.224.202,,,,end,31.13.224.202,,35186
<14>Dec 28 05:43:57 VISION-SEOUL-FW.seoulfw 1,from-policy,,,0,,0,0,,,,internet-utility,tcp,,"[""_dateparsefailure""]",tcp-fin,8b168a38-7dd9-4435-8188-4d9dc014666e,,2753,0,2024-12-27T20:43:57.740Z,,443,Korea Republic Of,2817,no,N/A,,,296483,0,,44,0,2024/12/28 05:43:57,NonProxyTraffic,,,VISION-SEOUL-FW.seoulfw 1,2024/12/28 05:43:57,VISION-SEOUL-FW,14,1,192.168.200.252,,general-internet,0,0x8000000000000000,,13138,1,41022,0,7444489203827593543,30,web-browsing,,untrust,,ethernet1/2,,023201001129,,ethernet1/2,vsys1,,0,,Allow-Global-Protect-Portal,,license-expired,PaloLog-forward,,,untrust,1,allow,0,118.128.43.82,118.128.43.82,,,,,,2024/12/28 05:43:57,4,,,0,0,0x140201c,"used-by-malware,able-to-transfer-file,has-known-vulnerability,tunnel-other-application,pervasive-use",,,browser-based,no,web-browsing,,20077,TRAFFIC,,,,15891,,2024-12-28T05:43:57.855+09:00,,2024/12/28 05:43:38,0,,Bulgaria,,,VISION-SEOUL-FW.seoulfw 1,31.13.224.202,,,,end,31.13.224.202,,41022
<14>Dec 28 05:43:57 VISION-SEOUL-FW.seoulfw 1,from-policy,,,0,,0,0,,,,infrastructure,udp,,"[""_dateparsefailure""]",aged-out,dbd7a6c6-ca36-4398-80b3-5bab8fa733c2,,100,0,2024-12-27T20:43:57.740Z,,53,United States,2817,no,N/A,,,295914,0,,2,0,2024/12/28 05:43:57,NonProxyTraffic,,,VISION-SEOUL-FW.seoulfw 1,2024/12/28 05:43:57,VISION-SEOUL-FW,1,1,192.168.200.252,,networking,0,0x8000000000000000,,182,1,41852,0,7444489203827593544,1,dns-base,,untrust,,ethernet1/2,,023201001129,dns,ae1,vsys1,,0,,ALLOW-OUTBOUND,,any,PaloLog-forward,,,trust,1,allow,0,8.8.8.8,8.8.8.8,,,,seoul\administrator,,2024/12/28 05:43:57,3,,,0,0,0x400019,"used-by-malware,has-known-vulnerability,pervasive-use",,,network-protocol,no,dns-base,,53,TRAFFIC,,,,282,,2024-12-28T05:43:57.855+09:00,,2024/12/28 05:43:23,0,,192.168.0.0-192.168.255.255,,,VISION-SEOUL-FW.seoulfw 1,192.168.200.252,,,,end,118.128.43.82,,60410
<14>Dec 28 05:43:57 VISION-SEOUL-FW.seoulfw 1,from-policy,,,0,,0,0,,,,internet-utility,icmp,,"[""_dateparsefailure""]",aged-out,dbd7a6c6-ca36-4398-80b3-5bab8fa733c2,,294,0,2024-12-27T20:43:57.739Z,,0,192.168.0.0-192.168.255.255,2817,no,N/A,,,295900,0,,6,0,2024/12/28 05:43:57,NonProxyTraffic,,,VISION-SEOUL-FW.seoulfw 1,2024/12/28 05:43:57,VISION-SEOUL-FW,3,1,192.168.200.252,,general-internet,0,0x8000000000000000,,294,3,26135,0,7444489203827593541,3,untunneled,,trust,,ae1,,023201001129,,ae1,vsys1,,0,,ALLOW-OUTBOUND,,any,PaloLog-forward,,,trust,0,allow,0,0.0.0.0,192.168.200.1,,,,,,2024/12/28 05:43:57,2,,,0,0,0x100019,"has-known-vulnerability,tunnel-other-application,pervasive-use",,,network-protocol,no,ping,,0,TRAFFIC,,,,588,,2024-12-28T05:43:57.855+09:00,,2024/12/28 05:43:41,0,,192.168.0.0-192.168.255.255,,,VISION-SEOUL-FW.seoulfw 1,192.168.200.254,,,,end,0.0.0.0,,0
<14>Dec 28 05:43:52 VISION-SEOUL-FW.seoulfw 1,from-policy,,,0,,0,0,,,,internet-utility,tcp,,"[""_dateparsefailure""]",tcp-fin,8b168a38-7dd9-4435-8188-4d9dc014666e,,2670,0,2024-12-27T20:43:52.744Z,,443,Korea Republic Of,2817,no,N/A,,,295240,0,,44,0,2024/12/28 05:43:52,NonProxyTraffic,,,VISION-SEOUL-FW.seoulfw 1,2024/12/28 05:43:52,VISION-SEOUL-FW,14,1,192.168.200.252,,general-internet,0,0x8000000000000000,,13138,1,57438,0,7444489203827593537,30,web-browsing,,untrust,,ethernet1/2,,023201001129,,ethernet1/2,vsys1,,0,,Allow-Global-Protect-Portal,,license-expired,PaloLog-forward,,,untrust,0,allow,0,118.128.43.82,118.128.43.82,,,,,,2024/12/28 05:43:52,4,,,0,0,0x140201c,"used-by-malware,able-to-transfer-file,has-known-vulnerability,tunnel-other-application,pervasive-use",,,browser-based,no,web-browsing,,20077,TRAFFIC,,,,15808,,2024-12-28T05:43:52.855+09:00,,2024/12/28 05:43:36,0,,Bulgaria,,,VISION-SEOUL-FW.seoulfw 1,31.13.224.202,,,,end,31.13.224.202,,57438
<14>Dec 28 05:43:52 VISION-SEOUL-FW.seoulfw 1,from-policy,,,0,,0,0,,,,internet-utility,tcp,,"[""_dateparsefailure""]",tcp-fin,8b168a38-7dd9-4435-8188-4d9dc014666e,,2671,0,2024-12-27T20:43:52.744Z,,443,Korea Republic Of,2817,no,N/A,,,295678,0,,44,0,2024/12/28 05:43:52,NonProxyTraffic,,,VISION-SEOUL-FW.seoulfw 1,2024/12/28 05:43:52,VISION-SEOUL-FW,14,1,192.168.200.252,,general-internet,0,0x8000000000000000,,13138,1,54770,0,7444489203827593536,30,web-browsing,,untrust,,ethernet1/2,,023201001129,,ethernet1/2,vsys1,,0,,Allow-Global-Protect-Portal,,license-expired,PaloLog-forward,,,untrust,1,allow,0,118.128.43.82,118.128.43.82,,,,,,2024/12/28 05:43:52,4,,,0,0,0x140201c,"used-by-malware,able-to-transfer-file,has-known-vulnerability,tunnel-other-application,pervasive-use",,,browser-based,no,web-browsing,,20077,TRAFFIC,,,,15809,,2024-12-28T05:43:52.855+09:00,,2024/12/28 05:43:35,0,,Bulgaria,,,VISION-SEOUL-FW.seoulfw 1,31.13.224.202,,,,end,31.13.224.202,,54770
<14>Dec 28 05:43:52 VISION-SEOUL-FW.seoulfw 1,from-policy,,,0,,0,0,,,,unknown,tcp,,"[""_dateparsefailure""]",aged-out,dbd7a6c6-ca36-4398-80b3-5bab8fa733c2,,74,0,2024-12-27T20:43:52.744Z,,135,192.168.0.0-192.168.255.255,2817,no,N/A,,,295052,0,,1,0,2024/12/28 05:43:52,NonProxyTraffic,,,VISION-SEOUL-FW.seoulfw 1,2024/12/28 05:43:52,VISION-SEOUL-FW,0,1,192.168.200.252,,unknown,0,0x8000000000000000,,0,1,59916,0,7444489203827593539,1,incomplete,,trust,,ae1,,023201001129,,ae1,vsys1,,0,,ALLOW-OUTBOUND,,any,PaloLog-forward,,,trust,0,allow,0,0.0.0.0,192.168.199.201,,,,seoul\administrator,,2024/12/28 05:43:52,1,,,0,0,0x19,,,,unknown,no,incomplete,,0,TRAFFIC,,,,74,,2024-12-28T05:43:52.855+09:00,,2024/12/28 05:43:47,0,,192.168.0.0-192.168.255.255,,,VISION-SEOUL-FW.seoulfw 1,192.168.200.252,,,,end,0.0.0.0,,0
<14>Dec 28 05:43:52 VISION-SEOUL-FW.seoulfw 1,from-policy,,,0,,0,0,,,,unknown,udp,,"[""_dateparsefailure""]",policy-deny,e90cbdfb-a61c-4c37-92ea-1fc8d7cd4431,,60,0,2024-12-27T20:43:52.744Z,,63588,Korea Republic Of,2817,no,N/A,,,0,0,,1,0,2024/12/28 05:43:52,NonProxyTraffic,,,VISION-SEOUL-FW.seoulfw 1,2024/12/28 05:43:52,VISION-SEOUL-FW,0,1,192.168.200.252,,unknown,0,0x8000000000000000,,0,1,38616,0,7444489203827593538,1,not-applicable,,untrust,,,,023201001129,,ethernet1/2,vsys1,,0,,intrazone-default,,any,PaloLog-forward,,,untrust,0,deny,0,0.0.0.0,118.128.43.82,,,,,,2024/12/28 05:43:52,1,,,0,0,0x0,,,,unknown,no,not-applicable,,0,TRAFFIC,,,,60,,2024-12-28T05:43:52.855+09:00,,2024/12/28 05:43:51,0,,Korea Republic Of,,,VISION-SEOUL-FW.seoulfw 1,110.45.192.90,,,,drop,0.0.0.0,,0
<14>Dec 28 05:43:52 VISION-SEOUL-FW.seoulfw 1,from-policy,,,0,,0,0,,,,internet-utility,tcp,,"[""_dateparsefailure""]",tcp-fin,8b168a38-7dd9-4435-8188-4d9dc014666e,,2756,0,2024-12-27T20:43:52.744Z,,443,Korea Republic Of,2817,no,N/A,,,296205,0,,44,0,2024/12/28 05:43:52,NonProxyTraffic,,,VISION-SEOUL-FW.seoulfw 1,2024/12/28 05:43:52,VISION-SEOUL-FW,14,1,192.168.200.252,,general-internet,0,0x8000000000000000,,13138,1,60528,0,7444489203827593540,30,web-browsing,,untrust,,ethernet1/2,,023201001129,,ethernet1/2,vsys1,,0,,Allow-Global-Protect-Portal,,license-expired,PaloLog-forward,,,untrust,1,allow,0,118.128.43.82,118.128.43.82,,,,,,2024/12/28 05:43:52,4,,,0,0,0x140201c,"used-by-malware,able-to-transfer-file,has-known-vulnerability,tunnel-other-application,pervasive-use",,,browser-based,no,web-browsing,,20077,TRAFFIC,,,,15894,,2024-12-28T05:43:52.855+09:00,,2024/12/28 05:43:36,0,,Bulgaria,,,VISION-SEOUL-FW.seoulfw 1,31.13.224.202,,,,end,31.13.224.202,,60528
<14>Dec 28 05:43:52 VISION-SEOUL-FW.seoulfw 1,from-policy,,,0,,0,0,,,,unknown,tcp,,"[""_dateparsefailure""]",aged-out,dbd7a6c6-ca36-4398-80b3-5bab8fa733c2,,960,0,2024-12-27T20:43:52.743Z,,2201,192.168.0.0-192.168.255.255,2817,no,N/A,,,293017,0,,16,0,2024/12/28 05:43:52,NonProxyTraffic,,,VISION-SEOUL-FW.seoulfw 1,2024/12/28 05:43:52,VISION-SEOUL-FW,0,1,192.168.200.252,,unknown,0,0x8000000000000000,,0,1,2265,0,7444489203827593535,16,incomplete,,untrust,,ethernet1/2,,023201001129,,ae1,vsys1,,0,,ALLOW-OUTBOUND,,any,PaloLog-forward,,,trust,61,allow,0,192.168.0.2,192.168.0.2,,,,,,2024/12/28 05:43:52,1,,,0,0,0x400019,,,,unknown,no,incomplete,,2201,TRAFFIC,,,,960,,2024-12-28T05:43:52.855+09:00,,2024/12/28 05:42:45,0,,192.168.0.0-192.168.255.255,,,VISION-SEOUL-FW.seoulfw 1,192.168.200.121,,,,end,118.128.43.82,,40902
<14>Dec 28 05:43:52 VISION-SEOUL-FW.seoulfw 1,from-policy,,,0,,0,0,,,,unknown,udp,,"[""_dateparsefailure""]",policy-deny,e90cbdfb-a61c-4c37-92ea-1fc8d7cd4431,,60,0,2024-12-27T20:43:52.743Z,,7062,Korea Republic Of,2817,no,N/A,,,0,0,,1,0,2024/12/28 05:43:52,NonProxyTraffic,,,VISION-SEOUL-FW.seoulfw 1,2024/12/28 05:43:52,VISION-SEOUL-FW,0,1,192.168.200.252,,unknown,0,0x8000000000000000,,0,1,38059,0,7444489203827593534,1,not-applicable,,untrust,,,,023201001129,,ethernet1/2,vsys1,,0,,intrazone-default,,any,PaloLog-forward,,,untrust,0,deny,0,0.0.0.0,118.128.43.82,,,,,,2024/12/28 05:43:52,1,,,0,0,0x0,,,,unknown,no,not-applicable,,0,TRAFFIC,,,,60,,2024-12-28T05:43:52.855+09:00,,2024/12/28 05:43:51,0,,Korea Republic Of,,,VISION-SEOUL-FW.seoulfw 1,110.45.188.132,,,,drop,0.0.0.0,,0
<14>Dec 28 05:43:52 VISION-SEOUL-FW.seoulfw 1,from-policy,,,0,,0,0,,,,internet-utility,tcp,,"[""_dateparsefailure""]",tcp-fin,8b168a38-7dd9-4435-8188-4d9dc014666e,,2736,0,2024-12-27T20:43:52.743Z,,443,Korea Republic Of,2817,no,N/A,,,296178,0,,44,0,2024/12/28 05:43:52,NonProxyTraffic,,,VISION-SEOUL-FW.seoulfw 1,2024/12/28 05:43:52,VISION-SEOUL-FW,14,1,192.168.200.252,,general-internet,0,0x8000000000000000,,13138,1,51912,0,7444489203827593533,30,web-browsing,,untrust,,ethernet1/2,,023201001129,,ethernet1/2,vsys1,,0,,Allow-Global-Protect-Portal,,license-expired,PaloLog-forward,,,untrust,1,allow,0,118.128.43.82,118.128.43.82,,,,,,2024/12/28 05:43:52,4,,,0,0,0x140201c,"used-by-malware,able-to-transfer-file,has-known-vulnerability,tunnel-other-application,pervasive-use",,,browser-based,no,web-browsing,,20077,TRAFFIC,,,,15874,,2024-12-28T05:43:52.855+09:00,,2024/12/28 05:43:34,0,,Bulgaria,,,VISION-SEOUL-FW.seoulfw 1,31.13.224.202,,,,end,31.13.224.202,,51912
<14>Dec 28 05:43:52 VISION-SEOUL-FW.seoulfw 1,from-policy,,,0,,0,0,,,,infrastructure,udp,,"[""_dateparsefailure""]",aged-out,dbd7a6c6-ca36-4398-80b3-5bab8fa733c2,,87,0,2024-12-27T20:43:52.742Z,,53,United States,2817,no,N/A,,,295782,0,,2,0,2024/12/28 05:43:52,NonProxyTraffic,,,VISION-SEOUL-FW.seoulfw 1,2024/12/28 05:43:52,VISION-SEOUL-FW,1,1,192.168.200.252,,networking,0,0x8000000000000000,,208,1,55088,0,7444489203827593528,1,dns-base,,untrust,,ethernet1/2,,023201001129,dns,ae1,vsys1,,0,,ALLOW-OUTBOUND,,any,PaloLog-forward,,,trust,1,allow,0,8.8.8.8,8.8.8.8,,,,,,2024/12/28 05:43:52,3,,,0,0,0x400019,"used-by-malware,has-known-vulnerability,pervasive-use",,,network-protocol,no,dns-base,,53,TRAFFIC,,,,295,,2024-12-28T05:43:52.855+09:00,,2024/12/28 05:43:17,0,,192.168.0.0-192.168.255.255,,,VISION-SEOUL-FW.seoulfw 1,192.168.200.251,,,,end,118.128.43.82,,63922
<14>Dec 28 05:43:52 VISION-SEOUL-FW.seoulfw 1,from-policy,,,0,,0,0,,,,infrastructure,udp,,"[""_dateparsefailure""]",aged-out,dbd7a6c6-ca36-4398-80b3-5bab8fa733c2,,87,0,2024-12-27T20:43:52.742Z,,53,United States,2817,no,N/A,,,295159,0,,2,0,2024/12/28 05:43:52,NonProxyTraffic,,,VISION-SEOUL-FW.seoulfw 1,2024/12/28 05:43:52,VISION-SEOUL-FW,1,1,192.168.200.252,,networking,0,0x8000000000000000,,191,1,57937,0,7444489203827593529,1,dns-base,,untrust,,ethernet1/2,,023201001129,dns,ae1,vsys1,,0,,ALLOW-OUTBOUND,,any,PaloLog-forward,,,trust,0,allow,0,8.8.8.8,8.8.8.8,,,,,,2024/12/28 05:43:52,3,,,0,0,0x400019,"used-by-malware,has-known-vulnerability,pervasive-use",,,network-protocol,no,dns-base,,53,TRAFFIC,,,,278,,2024-12-28T05:43:52.855+09:00,,2024/12/28 05:43:18,0,,192.168.0.0-192.168.255.255,,,VISION-SEOUL-FW.seoulfw 1,192.168.200.251,,,,end,118.128.43.82,,36828
<14>Dec 28 05:43:52 VISION-SEOUL-FW.seoulfw 1,from-policy,,,0,,0,0,,,,internet-utility,tcp,,"[""_dateparsefailure""]",tcp-fin,8b168a38-7dd9-4435-8188-4d9dc014666e,,2565,0,2024-12-27T20:43:52.742Z,,443,Korea Republic Of,2817,no,N/A,,,296449,0,,43,0,2024/12/28 05:43:52,NonProxyTraffic,,,VISION-SEOUL-FW.seoulfw 1,2024/12/28 05:43:52,VISION-SEOUL-FW,14,1,192.168.200.252,,general-internet,0,0x8000000000000000,,13138,1,48964,0,7444489203827593532,29,web-browsing,,untrust,,ethernet1/2,,023201001129,,ethernet1/2,vsys1,,0,,Allow-Global-Protect-Portal,,license-expired,PaloLog-forward,,,untrust,1,allow,0,118.128.43.82,118.128.43.82,,,,,,2024/12/28 05:43:52,4,,,0,0,0x140201c,"used-by-malware,able-to-transfer-file,has-known-vulnerability,tunnel-other-application,pervasive-use",,,browser-based,no,web-browsing,,20077,TRAFFIC,,,,15703,,2024-12-28T05:43:52.855+09:00,,2024/12/28 05:43:33,0,,Bulgaria,,,VISION-SEOUL-FW.seoulfw 1,31.13.224.202,,,,end,31.13.224.202,,48964
<14>Dec 28 05:43:52 VISION-SEOUL-FW.seoulfw 1,from-policy,,,0,,0,0,,,,internet-utility,tcp,,"[""_dateparsefailure""]",tcp-fin,8b168a38-7dd9-4435-8188-4d9dc014666e,,2848,0,2024-12-27T20:43:52.742Z,,443,Korea Republic Of,2817,no,N/A,,,294521,0,,45,0,2024/12/28 05:43:52,NonProxyTraffic,,,VISION-SEOUL-FW.seoulfw 1,2024/12/28 05:43:52,VISION-SEOUL-FW,14,1,192.168.200.252,,general-internet,0,0x8000000000000000,,13138,1,46070,0,7444489203827593530,31,web-browsing,,untrust,,ethernet1/2,,023201001129,,ethernet1/2,vsys1,,0,,Allow-Global-Protect-Portal,,license-expired,PaloLog-forward,,,untrust,0,allow,0,118.128.43.82,118.128.43.82,,,,,,2024/12/28 05:43:52,4,,,0,0,0x140201c,"used-by-malware,able-to-transfer-file,has-known-vulnerability,tunnel-other-application,pervasive-use",,,browser-based,no,web-browsing,,20077,TRAFFIC,,,,15986,,2024-12-28T05:43:52.855+09:00,,2024/12/28 05:43:33,0,,Bulgaria,,,VISION-SEOUL-FW.seoulfw 1,31.13.224.202,,,,end,31.13.224.202,,46070
<14>Dec 28 05:43:52 VISION-SEOUL-FW.seoulfw 1,from-policy,,,0,,0,0,,,,encrypted-tunnel,tcp,,"[""_dateparsefailure""]",tcp-rst-from-client,dbd7a6c6-ca36-4398-80b3-5bab8fa733c2,,52619,0,2024-12-27T20:43:52.741Z,,443,United States,2817,no,N/A,,,295917,0,,2422,0,2024/12/28 05:43:52,NonProxyTraffic,,,VISION-SEOUL-FW.seoulfw 1,2024/12/28 05:43:52,VISION-SEOUL-FW,2174,1,192.168.200.252,,networking,0,0x8000000000000000,,2992091,1,43934,0,7444489203827593524,248,ssl,,untrust,,ethernet1/2,,023201001129,,ae2,vsys1,,0,,ALLOW-OUTBOUND,,license-expired,PaloLog-forward,,,SERVER,142,allow,0,34.206.77.243,34.206.77.243,,,,,,2024/12/28 05:43:52,4,,,0,0,0x40047a,"used-by-malware,able-to-transfer-file,has-known-vulnerability,tunnel-other-application,pervasive-use",,,browser-based,no,ssl,,443,TRAFFIC,,,,3044710,,2024-12-28T05:43:52.855+09:00,,2024/12/28 05:41:11,0,,192.168.0.0-192.168.255.255,,,VISION-SEOUL-FW.seoulfw 1,192.168.100.171,,,,end,118.128.43.82,,52884
<14>Dec 28 05:43:52 VISION-SEOUL-FW.seoulfw 1,from-policy,,,0,,0,0,,,,encrypted-tunnel,tcp,,"[""_dateparsefailure""]",tcp-rst-from-client,dbd7a6c6-ca36-4398-80b3-5bab8fa733c2,,1704,0,2024-12-27T20:43:52.741Z,,443,United States,2817,no,N/A,,,295978,0,,25,0,2024/12/28 05:43:52,NonProxyTraffic,,,VISION-SEOUL-FW.seoulfw 1,2024/12/28 05:43:52,VISION-SEOUL-FW,12,1,192.168.200.252,,networking,0,0x8000000000000000,,7464,1,1532,0,7444489203827593525,13,ssl,,untrust,,ethernet1/2,,023201001129,,ae2,vsys1,,0,,ALLOW-OUTBOUND,,license-expired,PaloLog-forward,,,SERVER,151,allow,0,34.206.77.243,34.206.77.243,,,,,,2024/12/28 05:43:52,4,,,0,0,0x40041c,"used-by-malware,able-to-transfer-file,has-known-vulnerability,tunnel-other-application,pervasive-use",,,browser-based,no,ssl,,443,TRAFFIC,,,,9168,,2024-12-28T05:43:52.855+09:00,,2024/12/28 05:41:02,0,,192.168.0.0-192.168.255.255,,,VISION-SEOUL-FW.seoulfw 1,192.168.100.171,,,,end,118.128.43.82,,65520
<14>Dec 28 05:43:52 VISION-SEOUL-FW.seoulfw 1,from-policy,,,0,,0,0,,,,internet-utility,tcp,,"[""_dateparsefailure""]",tcp-fin,8b168a38-7dd9-4435-8188-4d9dc014666e,,2673,0,2024-12-27T20:43:52.741Z,,443,Korea Republic Of,2817,no,N/A,,,294697,0,,44,0,2024/12/28 05:43:52,NonProxyTraffic,,,VISION-SEOUL-FW.seoulfw 1,2024/12/28 05:43:52,VISION-SEOUL-FW,14,1,192.168.200.252,,general-internet,0,0x8000000000000000,,13138,1,43182,0,7444489203827593523,30,web-browsing,,untrust,,ethernet1/2,,023201001129,,ethernet1/2,vsys1,,0,,Allow-Global-Protect-Portal,,license-expired,PaloLog-forward,,,untrust,1,allow,0,118.128.43.82,118.128.43.82,,,,,,2024/12/28 05:43:52,4,,,0,0,0x140201c,"used-by-malware,able-to-transfer-file,has-known-vulnerability,tunnel-other-application,pervasive-use",,,browser-based,no,web-browsing,,20077,TRAFFIC,,,,15811,,2024-12-28T05:43:52.854+09:00,,2024/12/28 05:43:32,0,,Bulgaria,,,VISION-SEOUL-FW.seoulfw 1,31.13.224.202,,,,end,31.13.224.202,,43182
<14>Dec 28 05:43:52 VISION-SEOUL-FW.seoulfw 1,from-policy,,,0,,0,0,,,,encrypted-tunnel,tcp,,"[""_dateparsefailure""]",tcp-rst-from-client,dbd7a6c6-ca36-4398-80b3-5bab8fa733c2,,58928,0,2024-12-27T20:43:52.741Z,,443,United States,2817,no,N/A,,,295133,0,,5018,0,2024/12/28 05:43:52,NonProxyTraffic,,,VISION-SEOUL-FW.seoulfw 1,2024/12/28 05:43:52,VISION-SEOUL-FW,4676,1,192.168.200.252,,networking,0,0x8000000000000000,,6599821,1,29377,0,7444489203827593526,342,ssl,,untrust,,ethernet1/2,,023201001129,,ae2,vsys1,,0,,ALLOW-OUTBOUND,,license-expired,PaloLog-forward,,,SERVER,150,allow,0,34.206.77.243,34.206.77.243,,,,,,2024/12/28 05:43:52,4,,,0,0,0x40047a,"used-by-malware,able-to-transfer-file,has-known-vulnerability,tunnel-other-application,pervasive-use",,,browser-based,no,ssl,,443,TRAFFIC,,,,6658749,,2024-12-28T05:43:52.855+09:00,,2024/12/28 05:41:03,0,,192.168.0.0-192.168.255.255,,,VISION-SEOUL-FW.seoulfw 1,192.168.100.171,,,,end,118.128.43.82,,8054
<14>Dec 28 05:43:52 VISION-SEOUL-FW.seoulfw 1,from-policy,,,0,,0,0,,,,infrastructure,udp,,"[""_dateparsefailure""]",aged-out,dbd7a6c6-ca36-4398-80b3-5bab8fa733c2,,87,0,2024-12-27T20:43:52.741Z,,53,United States,2817,no,N/A,,,295704,0,,2,0,2024/12/28 05:43:52,NonProxyTraffic,,,VISION-SEOUL-FW.seoulfw 1,2024/12/28 05:43:52,VISION-SEOUL-FW,1,1,192.168.200.252,,networking,0,0x8000000000000000,,191,1,60202,0,7444489203827593527,1,dns-base,,untrust,,ethernet1/2,,023201001129,dns,ae1,vsys1,,0,,ALLOW-OUTBOUND,,any,PaloLog-forward,,,trust,0,allow,0,8.8.8.8,8.8.8.8,,,,,,2024/12/28 05:43:52,3,,,0,0,0x400019,"used-by-malware,has-known-vulnerability,pervasive-use",,,network-protocol,no,dns-base,,53,TRAFFIC,,,,278,,2024-12-28T05:43:52.855+09:00,,2024/12/28 05:43:18,0,,192.168.0.0-192.168.255.255,,,VISION-SEOUL-FW.seoulfw 1,192.168.200.251,,,,end,118.128.43.82,,14377
<14>Dec 28 05:43:52 VISION-SEOUL-FW.seoulfw 1,from-policy,,,0,,0,0,,,,infrastructure,udp,,"[""_dateparsefailure""]",aged-out,dbd7a6c6-ca36-4398-80b3-5bab8fa733c2,,87,0,2024-12-27T20:43:52.740Z,,53,United States,2817,no,N/A,,,295481,0,,2,0,2024/12/28 05:43:52,NonProxyTraffic,,,VISION-SEOUL-FW.seoulfw 1,2024/12/28 05:43:52,VISION-SEOUL-FW,1,1,192.168.200.252,,networking,0,0x8000000000000000,,208,1,56066,0,7444489203827593521,1,dns-base,,untrust,,ethernet1/2,,023201001129,dns,ae1,vsys1,,0,,ALLOW-OUTBOUND,,any,PaloLog-forward,,,trust,0,allow,0,8.8.8.8,8.8.8.8,,,,,,2024/12/28 05:43:52,3,,,0,0,0x400019,"used-by-malware,has-known-vulnerability,pervasive-use",,,network-protocol,no,dns-base,,53,TRAFFIC,,,,295,,2024-12-28T05:43:52.854+09:00,,2024/12/28 05:43:18,0,,192.168.0.0-192.168.255.255,,,VISION-SEOUL-FW.seoulfw 1,192.168.200.251,,,,end,118.128.43.82,,36870
<14>Dec 28 05:43:52 VISION-SEOUL-FW.seoulfw 1,from-policy,,,0,,0,0,,,,infrastructure,udp,,"[""_dateparsefailure""]",aged-out,dbd7a6c6-ca36-4398-80b3-5bab8fa733c2,,87,0,2024-12-27T20:43:52.740Z,,53,United States,2817,no,N/A,,,294376,0,,2,0,2024/12/28 05:43:52,NonProxyTraffic,,,VISION-SEOUL-FW.seoulfw 1,2024/12/28 05:43:52,VISION-SEOUL-FW,1,1,192.168.200.252,,networking,0,0x8000000000000000,,208,1,44919,0,7444489203827593522,1,dns-base,,untrust,,ethernet1/2,,023201001129,dns,ae1,vsys1,,0,,ALLOW-OUTBOUND,,any,PaloLog-forward,,,trust,0,allow,0,8.8.8.8,8.8.8.8,,,,,,2024/12/28 05:43:52,3,,,0,0,0x400019,"used-by-malware,has-known-vulnerability,pervasive-use",,,network-protocol,no,dns-base,,53,TRAFFIC,,,,295,,2024-12-28T05:43:52.854+09:00,,2024/12/28 05:43:18,0,,192.168.0.0-192.168.255.255,,,VISION-SEOUL-FW.seoulfw 1,192.168.200.251,,,,end,118.128.43.82,,35015
